,grid_id,station_name,buffer_km,est_population_2020,centroid_lat,centroid_lon,centroid_maps_link,cluster_type,nearest_road_lat,nearest_road_lon,distance_to_road,nearest_road_maps_link,found_at_radius,processing_success,nearest_address_full,village,district,region,country,nearest_village_lat,nearest_village_lon,dist_point_to_nearest_address_km,geometry
0,21965,Aisa FM,25.0,412.02838134765625,1.2427973838343365,33.78459505434681,"https://www.google.com/maps?q=1.2427973838343365,33.78459505434681",main,1.2439385,33.78216340000001,298.5969713541069,"https://www.google.com/maps?q=1.2439385,33.78216340000001",25,True,"Komolo -manga, Pallisa, Eastern Region, Uganda",Komolo -manga,Pallisa,Eastern Region,Uganda,1.2473019,33.7806277,0.4092998349617411,"POLYGON ((33.789087720369345 1.238272846674644, 33.78909040532521 1.2473192538553335, 33.78010239055911 1.2473219506577125, 33.78009973617822 1.2382755239121106, 33.789087720369345 1.238272846674644))"
1,22136,Aisa FM,25.0,867.115966796875,1.2518410784070555,33.79358575412983,"https://www.google.com/maps?q=1.2518410784070555,33.79358575412983",main,1.2523246,33.7940621,75.29291828349349,"https://www.google.com/maps?q=1.2523246,33.7940621",25,True,"Kachede, Pallisa, Eastern Region, Uganda",Kachede,Pallisa,Eastern Region,Uganda,1.2520556960898883,33.795196636310806,0.12971979395029382,"POLYGON ((33.79807840053194 1.24731652616738, 33.79808113584456 1.2563629129288554, 33.78909310984045 1.2563656604059215, 33.78909040532521 1.2473192538553335, 33.79807840053194 1.24731652616738))"
2,21627,Aisa FM,25.0,1342.766845703125,1.260895606346787,33.766624271881355,"https://www.google.com/maps?q=1.260895606346787,33.766624271881355",replacement,1.2594365,33.7662388,166.9465710112107,"https://www.google.com/maps?q=1.2594365,33.7662388",25,True,"Kapuwai, Pallisa, Eastern Region, Uganda",Kapuwai,Pallisa,Eastern Region,Uganda,1.262748771751475,33.76613591556418,0.3664327745702977,"POLYGON ((33.77111699937585 1.2563710620307793, 33.77111966140956 1.2654175068529612, 33.76213154637343 1.2654201801171034, 33.76212891536083 1.256373716177906, 33.77111699937585 1.2563710620307793))"
3,20438,Aisa FM,25.0,1109.628173828125,1.2699600696672946,33.703709560590376,"https://www.google.com/maps?q=1.2699600696672946,33.703709560590376",main,1.2700466,33.7037253,9.727098588008534,"https://www.google.com/maps?q=1.2700466,33.7037253",25,True,"Odusai, Pallisa, Eastern Region, Uganda",Odusai,Pallisa,Eastern Region,Uganda,1.2697977344875335,33.70383628932957,0.03016343758365541,"POLYGON ((33.70820246722493 1.265435561661601, 33.708204929659495 1.2744821349589983, 33.69921665581242 1.2744846064219288, 33.699214224623915 1.2654380155760105, 33.70820246722493 1.265435561661601))"
4,21119,Aisa FM,25.0,802.255126953125,1.2789964771148659,33.7396650324489,"https://www.google.com/maps?q=1.2789964771148659,33.7396650324489",replacement,1.2773514,33.7380719,254.01852909283068,"https://www.google.com/maps?q=1.2773514,33.7380719",25,True,"Komolo Kobwin, Pallisa, Eastern Region, Uganda",Komolo Kobwin,Pallisa,Eastern Region,Uganda,1.2773184575182912,33.7380350760635,0.005483058234779256,"POLYGON ((33.74415784726423 1.2744719335032875, 33.74416045312659 1.2835184337225054, 33.73517221937088 1.2835210498714194, 33.735169644976104 1.2744745312071892, 33.74415784726423 1.2744719335032875))"
5,22480,Aisa FM,25.0,722.7393188476562,1.2880209626754824,33.81157302265423,"https://www.google.com/maps?q=1.2880209626754824,33.81157302265423",main,1.2884319,33.811392,49.70518607353852,"https://www.google.com/maps?q=1.2884319,33.811392",25,True,"Nyakoi -ogalai, Pallisa, Eastern Region, Uganda",Nyakoi -ogalai,Pallisa,Eastern Region,Uganda,1.290022211240704,33.80983004114771,0.2472660207947672,"POLYGON ((33.8160656403706 1.2834963603516185, 33.81606851819065 1.2925427042949922, 33.80708040656 1.2925455949406663, 33.807077560427594 1.2834992307595063, 33.8160656403706 1.2834963603516185))"
6,21972,Aisa FM,25.0,324.90045166015625,1.3061222869486002,33.78461421855793,"https://www.google.com/maps?q=1.3061222869486002,33.78461421855793",main,1.3061185,33.7847785,18.287801410306834,"https://www.google.com/maps?q=1.3061185,33.7847785",25,True,"Oboliso -kateki, Pallisa, Eastern Region, Uganda",Oboliso -kateki,Pallisa,Eastern Region,Uganda,1.3059905,33.7819554,0.3145035941555332,"POLYGON ((33.789106925818906 1.3015976835474954, 33.78910974769744 1.3106440862215694, 33.780121512669744 1.3106469199819668, 33.7801187229254 1.3016004977420663, 33.789106925818906 1.3015976835474954))"
7,21805,Aisa FM,25.0,690.0777587890625,1.3332643874979537,33.775634397502365,"https://www.google.com/maps?q=1.3332643874979537,33.775634397502365",main,1.3333484,33.775157,53.935390329472554,"https://www.google.com/maps?q=1.3333484,33.775157",25,True,"Kadami, Kumi, Eastern Region, Uganda",Kadami,Kumi,Eastern Region,Uganda,1.3328145327364909,33.77513260642874,0.05909469623170722,"POLYGON ((33.780127150175765 1.3287397624713972, 33.780129997938126 1.3377861827117956, 33.77114164583125 1.3377890420437653, 33.77113883087172 1.3287426024612223, 33.780127150175765 1.3287397624713972))"
8,20609,Aisa FM,25.0,1777.92041015625,1.279004155352232,33.71270029693309,"https://www.google.com/maps?q=1.279004155352232,33.71270029693309",replacement,1.2799812,33.7131411,118.65312814995673,"https://www.google.com/maps?q=1.2799812,33.7131411",25,True,"Kapuwai, Pallisa, Eastern Region, Uganda",Kapuwai,Pallisa,Eastern Region,Uganda,1.280084726416927,33.71321963613993,0.014402727304560561,"POLYGON ((33.717193185950975 1.2744796319353588, 33.71719569740965 1.2835261868173404, 33.70820740964965 1.283528707613715, 33.708204929659495 1.2744821349589983, 33.717193185950975 1.2744796319353588))"
9,20270,Aisa FM,25.0,1273.5386962890625,1.2880557143589886,33.69472615928583,"https://www.google.com/maps?q=1.2880557143589886,33.69472615928583",main,1.2887487,33.6949486,80.52645924897095,"https://www.google.com/maps?q=1.2887487,33.6949486",25,True,"Kapuwai, Pallisa, Eastern Region, Uganda",Kapuwai,Pallisa,Eastern Region,Uganda,1.288720051086117,33.69493530540597,0.0034963425451673682,"POLYGON ((33.69921910433375 1.2835311966252827, 33.699221570188215 1.292577786181515, 33.690233215847286 1.292580260732625, 33.69023078168472 1.283533653851738, 33.69921910433375 1.2835311966252827))"
10,20783,Aisa FM,25.0,971.0357055664062,1.3151878059438202,33.721698811986435,"https://www.google.com/maps?q=1.3151878059438202,33.721698811986435",main,1.3164746,33.7221221,149.88249514942567,"https://www.google.com/maps?q=1.3164746,33.7221221",25,True,"Ariet, Pallisa, Eastern Region, Uganda",Ariet,Pallisa,Eastern Region,Uganda,1.3175388858178176,33.72280231034398,0.13992841129140246,"POLYGON ((33.726191704181495 1.3106632409888028, 33.726194319116004 1.3197097752566707, 33.717205921034164 1.3197123998260765, 33.71720333845894 1.3106658475608903, 33.726191704181495 1.3106632409888028))"
11,21471,Aisa FM,25.0,377.30316162109375,1.3875488173948172,33.757674620637694,"https://www.google.com/maps?q=1.3875488173948172,33.757674620637694",main,1.3886017,33.757504,117.96066457246854,"https://www.google.com/maps?q=1.3886017,33.757504",25,True,"Olukangor, Ngora, Eastern Region, Uganda",Olukangor,Ngora,Eastern Region,Uganda,1.38861819369026,33.75750051685578,0.0018645269997209246,"POLYGON ((33.762167468813146 1.383024151529944, 33.76217036434165 1.3920706061099137, 33.75318177272341 1.392073512553976, 33.753178911335155 1.3830270390792374, 33.762167468813146 1.383024151529944))"
12,21980,Aisa FM,25.0,763.7108154296875,1.3784935651179522,33.78463728753319,"https://www.google.com/maps?q=1.3784935651179522,33.78463728753319",replacement,1.3785812,33.7853655,81.61821869912401,"https://www.google.com/maps?q=1.3785812,33.7853655",25,True,"Atoot Primary School, Komolo, Ngora, Eastern Region, Uganda",Komolo,Ngora,Eastern Region,Uganda,1.3794348,33.7877332,0.2798904228027435,"POLYGON ((33.78913004859603 1.3739688861464254, 33.789133026978526 1.3830152833960847, 33.780144526857626 1.3830182736880055, 33.780141582391515 1.3739718568714194, 33.78913004859603 1.3739688861464254))"
13,21475,Aisa FM,25.0,630.5169677734375,1.4237346678589433,33.75768628477889,"https://www.google.com/maps?q=1.4237346678589433,33.75768628477889",main,1.4232797,33.757699,50.327949506595886,"https://www.google.com/maps?q=1.4232797,33.757699",25,True,"Kaderun, Ngora, Eastern Region, Uganda",Kaderun,Ngora,Eastern Region,Uganda,1.4254033331136737,33.75790229599637,0.23590798422452883,"POLYGON ((33.76217916430818 1.419209965615112, 33.76218213542522 1.428256417356731, 33.753193405017875 1.4282593993812542, 33.753190468932324 1.4192129287443103, 33.76217916430818 1.419209965615112))"
14,21986,Aisa FM,25.0,344.48638916015625,1.4327719946297164,33.78465540628271,"https://www.google.com/maps?q=1.4327719946297164,33.78465540628271",replacement,1.432629,33.7844423,28.503214886283025,"https://www.google.com/maps?q=1.432629,33.7844423",25,True,"Kaderun, Ngora, Eastern Region, Uganda",Kaderun,Ngora,Eastern Region,Uganda,1.4262465,33.7830424,0.722734746336479,"POLYGON ((33.789148212367735 1.428247259074065, 33.789151308143545 1.437293652063636, 33.78016259984559 1.4372967597601236, 33.78015953932297 1.4282503472027621, 33.789148212367735 1.428247259074065))"
15,21646,Aisa FM,25.0,639.4683837890625,1.4327781194832307,33.76667798636443,"https://www.google.com/maps?q=1.4327781194832307,33.76667798636443",main,1.4326963,33.7676939,113.41728768241352,"https://www.google.com/maps?q=1.4326963,33.7676939",25,True,"Kaderun, Ngora, Eastern Region, Uganda",Kaderun,Ngora,Eastern Region,Uganda,1.4285702493999244,33.76946630876505,0.4970489479239063,"POLYGON ((33.77117084693453 1.428253399963776, 33.77117387220357 1.4372998318648225, 33.76218512544031 1.4373028683773539, 33.76218213542522 1.428256417356731, 33.77117084693453 1.428253399963776))"
16,20449,Aisa FM,25.0,520.5122680664062,1.3694724327232448,33.70373753101624,"https://www.google.com/maps?q=1.3694724327232448,33.70373753101624",replacement,1.3698407,33.7045338,97.52356616940966,"https://www.google.com/maps?q=1.3698407,33.7045338",25,True,"Oswara, Ngora, Eastern Region, Uganda",Oswara,Ngora,Eastern Region,Uganda,1.3704790395742859,33.706408289226054,0.22022582677949673,"POLYGON ((33.70823051961405 1.3649478318333172, 33.708233175177334 1.3739943978104951, 33.69924454292028 1.3739970623150632, 33.69924192105368 1.3649504787880313, 33.70823051961405 1.3649478318333172))"
17,20624,Aisa FM,25.0,379.1981201171875,1.414702536774302,33.71273972061793,"https://www.google.com/maps?q=1.414702536774302,33.71273972061793",replacement,1.4157119,33.7125573,113.44152821634913,"https://www.google.com/maps?q=1.4157119,33.7125573",25,True,"Tilling, Ngora, Eastern Region, Uganda",Tilling,Ngora,Eastern Region,Uganda,1.4187234,33.7170385,0.599651306127148,"POLYGON ((33.71723272473607 1.4101778851177897, 33.717235502908494 1.4192244298106464, 33.70824671638654 1.419227217212845, 33.70824397302456 1.4101806547453735, 33.71723272473607 1.4101778851177897))"
18,19097,Aisa FM,25.0,760.2390747070312,1.4418662346307232,33.63184752299453,"https://www.google.com/maps?q=1.4418662346307232,33.63184752299453",replacement,1.4411041,33.6320377,86.88985205025261,"https://www.google.com/maps?q=1.4411041,33.6320377",25,True,"Amese, Serere, Eastern Region, Uganda",Amese,Serere,Eastern Region,Uganda,1.4429168643549277,33.63087117057739,0.2388118591390354,"POLYGON ((33.63634078780994 1.437341642173718, 33.63634330001172 1.446388336612075, 33.62735425768805 1.446390854957469, 33.62735178096815 1.4373441447613051, 33.63634078780994 1.437341642173718))"
19,23155,Aisa FM,25.0,296.80096435546875,1.2427778208003644,33.84751056135963,"https://www.google.com/maps?q=1.2427778208003644,33.84751056135963",replacement,1.2433114,33.8469166,88.60468469995918,"https://www.google.com/maps?q=1.2433114,33.8469166",25,True,"Okongora, Pallisa, Eastern Region, Uganda",Okongora,Pallisa,Eastern Region,Uganda,1.2442768,33.8448268,0.2559087018084887,"POLYGON ((33.85200304958163 1.2382532475092054, 33.852005948552886 1.2472995114616738, 33.84301807537962 1.2473024244558863, 33.843015206980944 1.238256139370064, 33.85200304958163 1.2382532475092054))"
20,22818,Aisa FM,25.0,375.39300537109375,1.2699225102710032,33.82954336406998,"https://www.google.com/maps?q=1.2699225102710032,33.82954336406998",main,1.2699969,33.8290803,52.18780156067965,"https://www.google.com/maps?q=1.2699969,33.8290803",25,True,"Kapuwai, Pallisa, Eastern Region, Uganda",Kapuwai,Pallisa,Eastern Region,Uganda,1.2687375,33.8302398,0.18985518728542902,"POLYGON ((33.83403591898143 1.2653979166599774, 33.8340388188272 1.2744442207490951, 33.82505081102902 1.2744471340324826, 33.8250479424247 1.2654008092577171, 33.83403591898143 1.2653979166599774))"
21,23841,Aisa FM,25.0,646.972900390625,1.2970430826281178,33.883480252443526,"https://www.google.com/maps?q=1.2970430826281178,33.883480252443526",main,1.2976364,33.8835732,66.41646969394743,"https://www.google.com/maps?q=1.2976364,33.8835732",25,True,"Kabura, Kumi, Eastern Region, Uganda",Kabura,Kumi,Eastern Region,Uganda,1.2957462812888718,33.882607649995805,0.23500611486370207,"POLYGON ((33.88797266427101 1.2925184269842147, 33.88797581759026 1.3015646003044834, 33.87898784212322 1.3015677690094212, 33.878984720711394 1.292521573658726, 33.88797266427101 1.2925184269842147))"
22,22994,Aisa FM,25.0,640.608154296875,1.3241973417058717,33.838549212891095,"https://www.google.com/maps?q=1.3241973417058717,33.838549212891095",replacement,1.3244122,33.8382855,37.75949173379629,"https://www.google.com/maps?q=1.3244122,33.8382855",25,True,"Kabura, Kumi, Eastern Region, Uganda",Kabura,Kumi,Eastern Region,Uganda,1.3250874332478124,33.83893586485144,0.10398757590787554,"POLYGON ((33.84304177484488 1.3196726820459992, 33.843044831318 1.3287189612891166, 33.8340566520698 1.3287220315897699, 33.83405362817422 1.3196757314360898, 33.84304177484488 1.3196726820459992))"
23,23165,Aisa FM,25.0,363.7286376953125,1.333240533814396,33.847540448673506,"https://www.google.com/maps?q=1.333240533814396,33.847540448673506",main,1.3333017,33.8476412,13.094498797751418,"https://www.google.com/maps?q=1.3333017,33.8476412",25,True,"Kabura, Kumi, Eastern Region, Uganda",Kabura,Kumi,Eastern Region,Uganda,1.3332781582128281,33.84765737351996,0.003164819851367762,"POLYGON ((33.85203298966719 1.3287158580883975, 33.852036099839225 1.3377621155246853, 33.84304790869013 1.337765239860183, 33.843044831318 1.3287189612891166, 33.85203298966719 1.3287158580883975))"
24,22998,Aisa FM,25.0,674.1683959960938,1.3603824951002528,33.838561539955855,"https://www.google.com/maps?q=1.3603824951002528,33.838561539955855",main,1.3602487,33.8378424,81.38781236228807,"https://www.google.com/maps?q=1.3602487,33.8378424",25,True,"Kabukol Primary School, Kabukol, Kumi, Eastern Region, Uganda",Kabukol,Kumi,Eastern Region,Uganda,1.3584603,33.8380083,0.19861215115285202,"POLYGON ((33.84305412613294 1.3558577949678705, 33.84305726620438 1.3649040714953484, 33.83406895441847 1.3649072254397148, 33.834065847815594 1.3558609280010874, 33.84305412613294 1.3558577949678705))"
25,25543,Aisa FM,25.0,148.5227508544922,1.315101806751816,33.973365675864095,"https://www.google.com/maps?q=1.315101806751816,33.973365675864095",replacement,1.3174942,33.9724217,284.6353390872066,"https://www.google.com/maps?q=1.3174942,33.9724217",25,True,"Kanyumu Road, Kamachya, Kumi, Eastern Region, Uganda",Kamachya,Kumi,Eastern Region,Uganda,1.3172342526640528,33.96972892234964,0.3010552468073304,"POLYGON ((33.977857821486595 1.31057708092707, 33.97786134233579 1.319623020294833, 33.96887353253175 1.3196265597831973, 33.96887004403131 1.3105805961442931, 33.977857821486595 1.31057708092707))"
26,24525,Aisa FM,25.0,309.2528686523437,1.3332145696327309,33.9194451546608,"https://www.google.com/maps?q=1.3332145696327309,33.9194451546608",replacement,1.3329178,33.9194964,33.30715656155006,"https://www.google.com/maps?q=1.3329178,33.9194964",25,True,"Omerein, Kumi, Eastern Region, Uganda",Omerein,Kumi,Eastern Region,Uganda,1.3296554,33.922171,0.46768753814292824,"POLYGON ((33.92393747736686 1.328689848126966, 33.92394084992405 1.337735928418813, 33.914952833989 1.337739317733209, 33.91494949422853 1.3286932145141173, 33.92393747736686 1.328689848126966))"
27,24697,Aisa FM,25.0,257.65789794921875,1.351303311364,33.92843996669866,"https://www.google.com/maps?q=1.351303311364,33.92843996669866",replacement,1.3500562,33.9270258,209.24848584966017,"https://www.google.com/maps?q=1.3500562,33.9270258",25,True,"Kanyumu, Kumi, Eastern Region, Uganda",Kanyumu,Kumi,Eastern Region,Uganda,1.3501634022942421,33.92711365847891,0.015366106775196588,"POLYGON ((33.93293227143535 1.3467785624462716, 33.9329357230429 1.3558246182258953, 33.9239476637511 1.355828086963888, 33.92394424538533 1.3467820080326474, 33.93293227143535 1.3467785624462716))"
28,26061,Aisa FM,25.0,315.5743713378906,1.3874580779123158,34.00035855443142,"https://www.google.com/maps?q=1.3874580779123158,34.00035855443142",replacement,1.3895941,34.0007703,240.5942574079398,"https://www.google.com/maps?q=1.3895941,34.0007703",25,True,"Saint Charles Akulony Primary School, Lira - Mbale Road, Kapokin, Bugisa sub-region, Ngora, Eastern Region, Uganda",Kapokin,Ngora,Eastern Region,Uganda,1.385545,34.0014144,0.45343050510240657,"POLYGON ((34.00485064810925 1.3829332432568329, 34.004854465276004 1.3919791029757076, 33.99586646206164 1.3919829400243577, 33.995862679024036 1.3829370553608638, 34.00485064810925 1.3829332432568329))"
29,26238,Aisa FM,25.0,465.079345703125,1.450775148596076,34.009373980862264,"https://www.google.com/maps?q=1.450775148596076,34.009373980862264",main,1.4507911,34.0086841,76.7929920384198,"https://www.google.com/maps?q=1.4507911,34.0086841",25,True,"Abitibit, Bukedea, Eastern Region, Uganda",Abitibit,Bukedea,Eastern Region,Uganda,1.4508370032492799,34.00893307684724,0.028168234431248124,"POLYGON ((34.01386607918344 1.4462502237544441, 34.01387010642734 1.4552960532573962, 34.00488188298696 1.455300100952523, 34.00487789143091 1.4462542462796135, 34.01386607918344 1.4462502237544441))"
30,24192,Aisa FM,25.0,336.61199951171875,1.396557242809669,33.90150009290718,"https://www.google.com/maps?q=1.396557242809669,33.90150009290718",replacement,1.3952543,33.9019759,153.49522360974123,"https://www.google.com/maps?q=1.3952543,33.9019759",25,True,"Kanyumu Road, Kamachya, Kumi, Eastern Region, Uganda",Kamachya,Kumi,Eastern Region,Uganda,1.3937330022339602,33.90007821615293,0.2699945644322175,"POLYGON ((33.90598510879783 1.3920194150685634, 33.90598857298015 1.4010655361508353, 33.89700027608538 1.4010690165814115, 33.89699684625986 1.3920228730188702, 33.90598510879783 1.3920194150685634))"
31,22834,Aisa FM,25.0,506.1307678222656,1.414663455898265,33.829592144017305,"https://www.google.com/maps?q=1.414663455898265,33.829592144017305",replacement,1.4146237,33.8297539,18.530137429529287,"https://www.google.com/maps?q=1.4146237,33.8297539",25,True,"Atekwa, Kumi, Eastern Region, Uganda",Atekwa,Kumi,Eastern Region,Uganda,1.413363,33.8273259,0.3040427250954044,"POLYGON ((33.834084797607176 1.4101387021885727, 33.834088028282515 1.419184995417492, 33.82509949032675 1.4191882396906847, 33.825096294457055 1.4101419257737915, 33.834084797607176 1.4101387021885727))"
32,24197,Aisa FM,25.0,670.2973022460938,1.441787878377339,33.901517607478674,"https://www.google.com/maps?q=1.441787878377339,33.901517607478674",main,1.441648,33.901501,15.577075084617855,"https://www.google.com/maps?q=1.441648,33.901501",25,True,"Atiida, Kumi, Eastern Region, Uganda",Atiida,Kumi,Eastern Region,Uganda,1.4426487,33.9036598,0.2644988505693493,"POLYGON ((33.90600265432917 1.4372500133366621, 33.906006230823536 1.4462961308244089, 33.897017758803145 1.4462997236588258, 33.89701421777947 1.4372535836899751, 33.90600265432917 1.4372500133366621))"
33,23349,Aisa FM,25.0,577.97705078125,1.4598847899674257,33.856574465996275,"https://www.google.com/maps?q=1.4598847899674257,33.856574465996275",replacement,1.4596734,33.856571,23.377627019551777,"https://www.google.com/maps?q=1.4596734,33.856571",25,True,"Kanyumu Road, Nyero, Kumi, Eastern Region, Uganda",Nyero,Kumi,Eastern Region,Uganda,1.4596981033874654,33.85795190357442,0.15369620877837364,"POLYGON ((33.86106707102658 1.4553599638073864, 33.86107051286312 1.4644061899917011, 33.85208186025197 1.4644096464909606, 33.852078454333856 1.4553633989456138, 33.86106707102658 1.4553599638073864))"
34,25380,Aisa FM,25.0,401.0394592285156,1.37842713086524,33.96440276225362,"https://www.google.com/maps?q=1.37842713086524,33.96440276225362",main,1.3784431,33.9645783,19.614798049043053,"https://www.google.com/maps?q=1.3784431,33.9645783",25,True,"Ajuket, Kumi, Eastern Region, Uganda",Ajuket,Kumi,Eastern Region,Uganda,1.3784357029304068,33.96459678105555,0.0022133837050503278,"POLYGON ((33.96889496790314 1.3739023273931212, 33.9688986245306 1.3829482862480442, 33.9599105580293 1.3829519614005974, 33.95990693531008 1.3739059784973744, 33.96889496790314 1.3739023273931212))"
35,24873,Aisa FM,25.0,267.66015625,1.405576089549397,33.93744922552491,"https://www.google.com/maps?q=1.405576089549397,33.93744922552491",replacement,1.4064013,33.9373481,91.93896968571177,"https://www.google.com/maps?q=1.4064013,33.9373481",25,True,"Atutur, Kumi, Eastern Region, Uganda",,Kumi,Eastern Region,Uganda,1.4027687528723884,33.93928591932226,0.45589890885651285,"POLYGON ((33.94194153371619 1.4010512675352509, 33.941945158674 1.4100972957454234, 33.93295691838414 1.4101009383091117, 33.93295332800416 1.4010548867222647, 33.94194153371619 1.4010512675352509))"
36,24365,Aisa FM,25.0,562.1475219726562,1.4236790421693923,33.91049150602151,"https://www.google.com/maps?q=1.4236790421693923,33.91049150602151",main,1.423708,33.9104793,3.4782169427514398,"https://www.google.com/maps?q=1.423708,33.9104793",25,True,"Obule Primary School, Kanyumu Road, Ogoloi, Kumi, Eastern Region, Uganda",Ogoloi,Kumi,Eastern Region,Uganda,1.4238758,33.9124588,0.22106937394905013,"POLYGON ((33.91498391254414 1.4191542156520551, 33.91498747913707 1.4282003118865139, 33.9059991002981 1.4282038951208527, 33.90599556872986 1.419157776181559, 33.91498391254414 1.4191542156520551))"
37,25219,Aisa FM,25.0,388.0304565429688,1.4598447014102987,33.95544811206809,"https://www.google.com/maps?q=1.4598447014102987,33.95544811206809",main,1.4592923,33.955421,61.156253854103646,"https://www.google.com/maps?q=1.4592923,33.955421",25,True,"Lira - Mbale Road, Atutur, Bugisa sub-region, Kumi, Eastern Region, Uganda",,Kumi,Eastern Region,Uganda,1.4600720186661424,33.95652320013622,0.149927085328186,"POLYGON ((33.95994039651984 1.4553197989835938, 33.95994423343015 1.4643657754073385, 33.95095582792954 1.4643696307470928, 33.95095202693275 1.4553236304974984, 33.95994039651984 1.4553197989835938))"
38,25900,Aisa FM,25.0,532.9525756835938,1.4688749294552275,33.99140544517307,"https://www.google.com/maps?q=1.4688749294552275,33.99140544517307",main,1.468352,33.9916112,62.19136410491467,"https://www.google.com/maps?q=1.468352,33.9916112",25,True,"Ocagoro, Kumi, Eastern Region, Uganda",Ocagoro,Kumi,Eastern Region,Uganda,1.4683134049913364,33.99163254684652,0.004884259741561764,"POLYGON ((33.99589761519151 1.4643499914984668, 33.99590162044356 1.4733958696346505, 33.98691327535057 1.4733998947156297, 33.98690930623288 1.4643539918571953, 33.99589761519151 1.4643499914984668))"
39,26246,Aisa FM,25.0,341.3604431152344,1.5231418613431753,34.009406856979844,"https://www.google.com/maps?q=1.5231418613431753,34.009406856979844",replacement,1.5233702,34.009405,25.249406403617662,"https://www.google.com/maps?q=1.5233702,34.009405",25,True,"Okuoro, Kumi, Eastern Region, Uganda",Okuoro,Kumi,Eastern Region,Uganda,1.52511,34.0139287,0.5389063230826997,"POLYGON ((34.01389900101164 1.5186168388174708, 34.013903229369355 1.5276626622765799, 34.00491471240642 1.5276669113383703, 34.00491052151875 1.518621062707736, 34.01389900101164 1.5186168388174708))"
40,22841,Aisa FM,25.0,687.9437255859375,1.4779875631346007,33.829615140918456,"https://www.google.com/maps?q=1.4779875631346007,33.829615140918456",main,1.478183,33.8296227,21.626799978057555,"https://www.google.com/maps?q=1.478183,33.8296227",25,True,"Kalengo, Ngora, Eastern Region, Uganda",Kalengo,Ngora,Eastern Region,Uganda,1.4778741435665868,33.8283276272411,0.148110391885664,"POLYGON ((33.83410784663127 1.473462739561116, 33.83411122207598 1.4825090276707473, 33.82512243424212 1.4825124167641166, 33.82511909516273 1.4734661079654146, 33.83410784663127 1.473462739561116))"
41,23351,Aisa FM,25.0,540.4305419921875,1.4779772622168712,33.85658135624138,"https://www.google.com/maps?q=1.4779772622168712,33.85658135624138",replacement,1.4778325,33.8565028,18.23865281949686,"https://www.google.com/maps?q=1.4778325,33.8565028",25,True,"Nyero, Kumi, Eastern Region, Uganda",Nyero,Kumi,Eastern Region,Uganda,1.4801653,33.8554564,0.28301519587516816,"POLYGON ((33.86107397605025 1.4734524154350623, 33.861077460588405 1.482498640132896, 33.85208873547195 1.4825021393547126, 33.852085287297854 1.4734558932955182, 33.86107397605025 1.4734524154350623))"
42,23695,Aisa FM,25.0,341.67926025390625,1.5141549747567435,33.87457305714133,"https://www.google.com/maps?q=1.5141549747567435,33.87457305714133",replacement,1.5145976,33.8744679,50.32279590316535,"https://www.google.com/maps?q=1.5145976,33.8744679",25,True,"Oosion, Kumi, Eastern Region, Uganda",Oosion,Kumi,Eastern Region,Uganda,1.514614376923077,33.87445671538461,0.0022339522586718092,"POLYGON ((33.87906564912332 1.5096300709514188, 33.87906929357928 1.5186762492250614, 33.870080463707566 1.5186799091035632, 33.870076856506095 1.5096337090196963, 33.87906564912332 1.5096300709514188))"
43,23016,Aisa FM,25.0,363.2618103027344,1.5232155449276255,33.83862112832966,"https://www.google.com/maps?q=1.5232155449276255,33.83862112832966",replacement,1.522745,33.8386941,52.66038371207059,"https://www.google.com/maps?q=1.522745,33.8386941",25,True,"Okwangai, Ngora, Eastern Region, Uganda",Okwangai,Ngora,Eastern Region,Uganda,1.5171284,33.8401107,0.6407501711965435,"POLYGON ((33.843113845527625 1.518690663109906, 33.843117361870526 1.5277369265118068, 33.834128409552655 1.5277404568833863, 33.83412493068883 1.518694172567494, 33.843113845527625 1.518690663109906))"
44,21308,Aisa FM,25.0,438.5223693847656,1.450877059469991,33.748706401814836,"https://www.google.com/maps?q=1.450877059469991,33.748706401814836",replacement,1.4500442,33.7472959,181.98802235070036,"https://www.google.com/maps?q=1.4500442,33.7472959",25,True,"Kopelo, Ngora, Eastern Region, Uganda",Kopelo,Ngora,Eastern Region,Uganda,1.4539083,33.7483657,0.4435485804448987,"POLYGON ((33.753199333215015 1.4463523384880166, 33.75320232532733 1.4553988069487118, 33.74421346981223 1.4554018096189203, 33.744210513400255 1.4463553224865897, 33.753199333215015 1.4463523384880166))"
45,22160,Aisa FM,25.0,752.2071533203125,1.4689544055251458,33.79365669823187,"https://www.google.com/maps?q=1.4689544055251458,33.79365669823187",main,1.4690838,33.7938145,22.65149861473802,"https://www.google.com/maps?q=1.4690838,33.7938145",25,True,"Ngora Institutional Complex C, Ngora, Eastern Region, Uganda",Ngora Institutional Complex C,Ngora,Eastern Region,Uganda,1.469055071573565,33.7937291251952,0.010017776225443958,"POLYGON ((33.798149508700206 1.4644296239936427, 33.79815271888993 1.473475994259345, 33.789163886919376 1.4734792167163129, 33.78916071287376 1.4644328266581157, 33.798149508700206 1.4644296239936427))"
46,21992,Aisa FM,25.0,514.671875,1.4870503980898417,33.78467422542245,"https://www.google.com/maps?q=1.4870503980898417,33.78467422542245",main,1.4871822,33.7848162,21.494598402282744,"https://www.google.com/maps?q=1.4871822,33.7848162",25,True,"Odwarat, Ngora, Eastern Region, Uganda",Odwarat,Ngora,Eastern Region,Uganda,1.486770219652209,33.784913223998196,0.046816773745325946,"POLYGON ((33.789167080533424 1.482525606030253, 33.78917029371628 1.4915719945953712, 33.780181369219804 1.4915752197017267, 33.78017819262712 1.482528811567921, 33.789167080533424 1.482525606030253))"
47,22165,Aisa FM,25.0,387.7923889160156,1.5141862969714797,33.793672904853864,"https://www.google.com/maps?q=1.5141862969714797,33.793672904853864",replacement,1.5139885,33.7936558,21.954081192203073,"https://www.google.com/maps?q=1.5139885,33.7936558",25,True,"Namasagali, Ngora, Eastern Region, Uganda",Namasagali,Ngora,Eastern Region,Uganda,1.5139938829037547,33.794270447862985,0.06840115070260624,"POLYGON ((33.7981657575654 1.5096614678323932, 33.79816906671541 1.5187078343303846, 33.78918005068175 1.5187111557521384, 33.78917677879005 1.5096647694608787, 33.7981657575654 1.5096614678323932))"
48,22337,Aisa FM,25.0,350.8641967773437,1.532275678149664,33.80266858774088,"https://www.google.com/maps?q=1.532275678149664,33.80266858774088",main,1.5324422,33.8030112,42.339425261795505,"https://www.google.com/maps?q=1.5324422,33.8030112",25,True,"Kumel, Ngora, Eastern Region, Uganda",Kumel,Ngora,Eastern Region,Uganda,1.5333577,33.8038034,0.13423592594763134,"POLYGON ((33.80716142937985 1.5277508210138346, 33.80716481582045 1.536797165955076, 33.79817574439568 1.5368005650200809, 33.7981723956587 1.5277542000611357, 33.80716142937985 1.5277508210138346))"
49,20630,Aisa FM,25.0,432.3077392578125,1.468981845259251,33.71275660336495,"https://www.google.com/maps?q=1.468981845259251,33.71275660336495",replacement,1.4678379,33.7128411,126.84076999680013,"https://www.google.com/maps?q=1.4678379,33.7128411",25,True,"To Serere, Agu, Ngora, Eastern Region, Uganda",Agu,Ngora,Eastern Region,Uganda,1.4678699628203622,33.71283810099205,0.003561020035496326,"POLYGON ((33.71724966053113 1.4644571424475534, 33.7172525454102 1.4735036827775498, 33.708263545346114 1.4735065768302398, 33.70826069661451 1.4644600187248231, 33.71724966053113 1.4644571424475534))"
50,19447,Aisa FM,25.0,607.8221435546875,1.5323278087715546,33.64985200049761,"https://www.google.com/maps?q=1.5323278087715546,33.64985200049761",main,1.531561,33.6499715,85.82637665396159,"https://www.google.com/maps?q=1.531561,33.6499715",25,True,"Akisim (kelim), Serere, Eastern Region, Uganda",Akisim (kelim),Serere,Eastern Region,Uganda,1.5315223153702435,33.64997716514042,0.004323760775850098,"POLYGON ((33.654345315730225 1.5278031193805608, 33.65434806115631 1.5368497741408556, 33.64535868354317 1.536852526196624, 33.64535597582709 1.5278058552289777, 33.654345315730225 1.5278031193805608))"
51,18590,Aisa FM,25.0,517.23681640625,1.4690138477828019,33.604887611358045,"https://www.google.com/maps?q=1.4690138477828019,33.604887611358045",replacement,1.4692095,33.6048765,21.669552532937693,"https://www.google.com/maps?q=1.4692095,33.6048765",25,True,"Akisim, Serere, Eastern Region, Uganda",Akisim,Serere,Eastern Region,Uganda,1.4691756913236675,33.604843895590506,0.005209636052073621,"POLYGON ((33.60938098343718 1.4644892640730185, 33.60938343452448 1.4735360029149562, 33.600394238415525 1.4735384590509193, 33.600391823479605 1.464491705123268, 33.60938098343718 1.4644892640730185))"
52,18253,Aisa FM,25.0,401.6435546875,1.496158997172844,33.58691637326373,"https://www.google.com/maps?q=1.496158997172844,33.58691637326373",replacement,1.4962141,33.5868833,7.11831010940059,"https://www.google.com/maps?q=1.4962141,33.5868833",25,True,,,,,,,,,"POLYGON ((33.59140982898352 1.4916344140416136, 33.59141225176524 1.5006811805931757, 33.582422916309106 1.5006836076514563, 33.582420530348024 1.4916368264621518, 33.59140982898352 1.4916344140416136))"
53,21488,Aisa FM,25.0,140.5871124267578,1.5413386009428636,33.75772626926441,"https://www.google.com/maps?q=1.5413386009428636,33.75772626926441",main,1.5415819,33.7577367,26.92784077917846,"https://www.google.com/maps?q=1.5415819,33.7577367",25,True,"Komolo, Ngora, Eastern Region, Uganda",Komolo,Ngora,Eastern Region,Uganda,1.5450223,33.7587113,0.3955797186011114,"POLYGON ((33.762219262984296 1.5368137807135636, 33.762222479805324 1.5458602227263538, 33.753233273710244 1.545863450403287, 33.75323009481773 1.536816989493265, 33.762219262984296 1.5368137807135636))"
54,22003,Aisa FM,25.0,314.33184814453125,1.5865607334992406,33.78471054652695,"https://www.google.com/maps?q=1.5865607334992406,33.78471054652695",main,1.5856472,33.7846831,101.06024326646005,"https://www.google.com/maps?q=1.5856472,33.7846831",25,True,"Ajeelo, Ngora, Eastern Region, Uganda",Ajeelo,Ngora,Eastern Region,Uganda,1.5834312343746244,33.78669550348094,0.33194390450445355,"POLYGON ((33.78920350191819 1.5820358380570039, 33.789206930384715 1.5910822180837867, 33.78021758868759 1.591085658456001, 33.78021419926279 1.5820392588587981, 33.78920350191819 1.5820358380570039))"
55,21497,Aisa FM,25.0,287.2356872558594,1.6227566320458426,33.75775581112859,"https://www.google.com/maps?q=1.6227566320458426,33.75775581112859",replacement,1.624247,33.75834,177.15534208701104,"https://www.google.com/maps?q=1.624247,33.75834",25,True,"Ajesa, Ngora, Eastern Region, Uganda",Ajesa,Ngora,Eastern Region,Uganda,1.62791,33.7590055,0.411750855207901,"POLYGON ((33.76224889491597 1.6182317303544076, 33.7622522818787 1.6272781651802053, 33.753262724396876 1.6272815629392152, 33.75325937736874 1.618235109214777, 33.76224889491597 1.6182317303544076))"
56,19282,Aisa FM,25.0,110.23167419433594,1.5775639188056827,33.64087627674687,"https://www.google.com/maps?q=1.5775639188056827,33.64087627674687",replacement,1.5798374,33.6370744,492.11768075265866,"https://www.google.com/maps?q=1.5798374,33.6370744",25,True,"Oregia-ajepet, Soroti, Eastern Region, Uganda",Oregia-ajepet,Soroti,Eastern Region,Uganda,1.5837807,33.6345753,0.5171641657472839,"POLYGON ((33.64536967446164 1.5730392022826005, 33.64537246220648 1.5820858693351876, 33.63638287669295 1.5820886632462239, 33.636380127772995 1.5730419802097928, 33.64536967446164 1.5730392022826005))"
57,19628,Aisa FM,25.0,492.1657104492188,1.63183811014862,33.65887274689897,"https://www.google.com/maps?q=1.63183811014862,33.65887274689897",replacement,1.6319813,33.6584118,53.67988664008271,"https://www.google.com/maps?q=1.6319813,33.6584118",25,True,"Omulala, Soroti, Eastern Region, Uganda",Omulala,Soroti,Eastern Region,Uganda,1.6318608725456936,33.65815090591901,0.03193926099032728,"POLYGON ((33.66336615875481 1.627313323980017, 33.66336912286952 1.6363599535425233, 33.654379331965686 1.636362924416069, 33.65437640801279 1.6273162784205581, 33.66336615875481 1.627313323980017))"
58,19113,Aisa FM,25.0,427.58544921875,1.5866133757025873,33.63188944010375,"https://www.google.com/maps?q=1.5866133757025873,33.63188944010375",main,1.5862278,33.6311034,97.30595259261047,"https://www.google.com/maps?q=1.5862278,33.6311034",25,True,"Oregia-ajepet, Soroti, Eastern Region, Uganda",Oregia-ajepet,Soroti,Eastern Region,Uganda,1.5837807,33.6345753,0.47167699348721775,"POLYGON ((33.63638287669295 1.5820886632462239, 33.63638564139674 1.5911353454861226, 33.62739600105119 1.591138115973161, 33.627393275395555 1.5820914179734564, 33.63638287669295 1.5820886632462239))"
59,20652,Aisa FM,25.0,430.5762023925781,1.6680057407278805,33.71282395098689,"https://www.google.com/maps?q=1.6680057407278805,33.71282395098689",replacement,1.6680281,33.7132137,43.43881680309135,"https://www.google.com/maps?q=1.6680281,33.7132137",25,True,"Lira - Mbale Road, Cell F, Soroti, Eastern Region, Uganda",Cell F,Soroti,Eastern Region,Uganda,1.669348127817112,33.71349974235352,0.1493923558006402,"POLYGON ((33.71731723692836 1.6634808510328585, 33.71732051317828 1.6725273739618838, 33.70833066147973 1.6725306591099993, 33.708327426281144 1.6634841184023426, 33.71731723692836 1.6634808510328585))"
60,25052,Aisa FM,25.0,998.7081298828124,1.4869865595660918,33.94647116747655,"https://www.google.com/maps?q=1.4869865595660918,33.94647116747655",replacement,1.4867995,33.9464917,20.80993619089699,"https://www.google.com/maps?q=1.4867995,33.9464917",25,True,"Boma South, Kumi, Eastern Region, Uganda",Boma South,Kumi,Eastern Region,Uganda,1.4867933339408859,33.94648875475083,0.0007564988184892652,"POLYGON ((33.95096350065925 1.4824616290136414, 33.95096737239312 1.491507627021427, 33.941978834235265 1.4915115169117008, 33.94197499908375 1.4824654953015786, 33.95096350065925 1.4824616290136414))"
61,24712,Aisa FM,25.0,2563.53466796875,1.4869942420987057,33.92849408114196,"https://www.google.com/maps?q=1.4869942420987057,33.92849408114196",main,1.4869772,33.9286103,13.06966194844662,"https://www.google.com/maps?q=1.4869772,33.9286103",25,True,"Kumi, Eastern Region, Uganda",,Kumi,Eastern Region,Uganda,1.4869751348888811,33.92859533606347,0.0016808043392852708,"POLYGON ((33.932986474151534 1.482469324884972, 33.932990272720225 1.4915153698733623, 33.9240016880708 1.4915191859059378, 33.923997926085406 1.4824731177633506, 33.932986474151534 1.482469324884972))"
62,24374,Aisa FM,25.0,533.8314819335938,1.5050939807058028,33.91052436210245,"https://www.google.com/maps?q=1.5050939807058028,33.91052436210245",replacement,1.5061913,33.9110562,135.00058043950577,"https://www.google.com/maps?q=1.5061913,33.9110562",25,True,"Kabata, Kumi, Eastern Region, Uganda",Kabata,Kumi,Eastern Region,Uganda,1.5032661819042523,33.909148950296704,0.3868631417914701,"POLYGON ((33.915016828600216 1.5005690553259543, 33.91502059937985 1.5096151448826631, 33.90603189529322 1.5096189324682843, 33.906028161543425 1.500572820205174, 33.915016828600216 1.5005690553259543))"
63,25228,Aisa FM,25.0,483.8137817382813,1.5412585659158242,33.95548344219577,"https://www.google.com/maps?q=1.5412585659158242,33.95548344219577",main,1.5413917,33.9555111,15.039599242428332,"https://www.google.com/maps?q=1.5413917,33.9555111",25,True,"Ceele, Kumi, Eastern Region, Uganda",Ceele,Kumi,Eastern Region,Uganda,1.5419821,33.954792,0.10327298480381272,"POLYGON ((33.959975785601046 1.5367335596688918, 33.95997983674075 1.5457795292417635, 33.95099109799277 1.5457835990225268, 33.95098708477178 1.5367376056221203, 33.959975785601046 1.5367335596688918))"
64,24038,Aisa FM,25.0,723.8715209960938,1.5412860337019467,33.89256183654911,"https://www.google.com/maps?q=1.5412860337019467,33.89256183654911",main,1.5411024,33.8925626,20.305488829618792,"https://www.google.com/maps?q=1.5411024,33.8925626",25,True,"Lira - Mbale Road, Atutur, Bugisa sub-region, Kumi, Eastern Region, Uganda",,Kumi,Eastern Region,Uganda,1.5410644097050508,33.892519942369255,0.006338753622839318,"POLYGON ((33.897054392364424 1.5367610823061626, 33.897058178062935 1.5458072139660812, 33.88806927891406 1.5458110158286442, 33.888065531137634 1.5367648619097833, 33.897054392364424 1.5367610823061626))"
65,23872,Aisa FM,25.0,191.1392822265625,1.5774744588066905,33.88358803593118,"https://www.google.com/maps?q=1.5774744588066905,33.88358803593118",main,1.5774772,33.8837698,20.228537576177036,"https://www.google.com/maps?q=1.5774772,33.8837698",25,True,"Adul, Ngora, Eastern Region, Uganda",Adul,Ngora,Eastern Region,Uganda,1.5765096348021457,33.884167139390115,0.11576498701771068,"POLYGON ((33.88808065438366 1.5729494728710876, 33.88808449025517 1.5819956236319375, 33.8790954151646 1.5819994753597404, 33.879091618107026 1.5729533025633247, 33.88808065438366 1.5729494728710876))"
66,22684,Aisa FM,25.0,337.36187744140625,1.5955930062003285,33.82067125237417,"https://www.google.com/maps?q=1.5955930062003285,33.82067125237417",main,1.5961354,33.8204411,65.21452571019063,"https://www.google.com/maps?q=1.5961354,33.8204411",25,True,"Lira - Mbale Road, Atutur, Bugisa sub-region, Ngora, Eastern Region, Uganda",,Ngora,Eastern Region,Uganda,1.5974666733720566,33.82194902093035,0.2232153836920264,"POLYGON ((33.825164099207 1.5910680625849531, 33.82516770430141 1.6001143612844746, 33.81617840297366 1.600117979726922, 33.816174837142135 1.5910716605602906, 33.825164099207 1.5910680625849531))"
67,23367,Aisa FM,25.0,399.9254455566406,1.622716929464013,33.856639537031626,"https://www.google.com/maps?q=1.622716929464013,33.856639537031626",replacement,1.6235763,33.8561511,109.47044171385572,"https://www.google.com/maps?q=1.6235763,33.8561511",25,True,"Okomion, Ngora, Eastern Region, Uganda",Okomion,Ngora,Eastern Region,Uganda,1.6236293900977947,33.85612414294369,0.0065924226230253905,"POLYGON ((33.86113229108134 1.6181919180276252, 33.861136117296006 1.6272381301751344, 33.85214678004798 1.627241971201963, 33.85214299376305 1.618195737690318, 33.86113229108134 1.6181919180276252))"
68,25230,Aisa FM,25.0,576.4777221679688,1.5593505273242287,33.9554915539574,"https://www.google.com/maps?q=1.5593505273242287,33.9554915539574",main,1.5593013,33.9557092,24.82349408193639,"https://www.google.com/maps?q=1.5593013,33.9557092",25,True,"Nyakoi, Kumi, Eastern Region, Uganda",Nyakoi,Kumi,Eastern Region,Uganda,1.559320021858716,33.95584459801576,0.015208448515935495,"POLYGON ((33.95998391168617 1.5548254980305045, 33.959988010437826 1.5638714660305286, 33.950999195183954 1.5638755834669418, 33.95099513479666 1.5548295916389954, 33.95998391168617 1.5548254980305045))"
69,25404,Aisa FM,25.0,506.458740234375,1.5955302200313952,33.96449700123241,"https://www.google.com/maps?q=1.5955302200313952,33.96449700123241",replacement,1.5946312,33.9647072,102.12396159141116,"https://www.google.com/maps?q=1.5946312,33.9647072",25,True,"Ceele, Kumi, Eastern Region, Uganda",Ceele,Kumi,Eastern Region,Uganda,1.5947188311479044,33.964797180878996,0.013933712230789482,"POLYGON ((33.96898935741088 1.5910051369386595, 33.9689935906477 1.6000510776851866, 33.96000464351682 1.6000553300517868, 33.96000044953519 1.591009365252467, 33.96898935741088 1.5910051369386595))"
70,9945,Dwanwana FM,25.0,285.9748840332031,1.6952717679950127,33.146440813501684,"https://www.google.com/maps?q=1.6952717679950127,33.146440813501684",main,1.695232,33.1461598,31.57636886992844,"https://www.google.com/maps?q=1.695232,33.1461598",25,True,"Omor, Kaberamaido, Eastern Region, Uganda",Omor,Kaberamaido,Eastern Region,Uganda,1.6945084068139382,33.14511164104249,0.14143674740157236,"POLYGON ((33.15093578502719 1.6907478349369018, 33.150936485699155 1.6997950375179505, 33.14194583799549 1.699795723426453, 33.14194517905923 1.6907485171925984, 33.15093578502719 1.6907478349369018))"
71,10457,Dwanwana FM,25.0,206.03765869140625,1.7133639099524243,33.17341429523779,"https://www.google.com/maps?q=1.7133639099524243,33.17341429523779",main,1.7138673,33.1719391,173.32600658085804,"https://www.google.com/maps?q=1.7138673,33.1719391",25,True,"Otage, Kaberamaido, Eastern Region, Uganda",Otage,Kaberamaido,Eastern Region,Uganda,1.7211574,33.1684249,0.8959380645114715,"POLYGON ((33.1779092357419 1.7088399165561794, 33.17791007044841 1.7178871051266003, 33.168919350508126 1.7178879260174278, 33.16891855798317 1.7088407331213473, 33.1779092357419 1.7088399165561794))"
72,11988,Dwanwana FM,25.0,293.4609680175781,1.722401964671752,33.25433157976464,"https://www.google.com/maps?q=1.722401964671752,33.25433157976464",main,1.7225318,33.2528559,164.82462509451807,"https://www.google.com/maps?q=1.7225318,33.2528559",25,True,"Ariebai, Kaberamaido, Eastern Region, Uganda",Ariebai,Kaberamaido,Eastern Region,Uganda,1.7287169,33.2508993,0.7177345718493632,"POLYGON ((33.25882632450752 1.717877801982593, 33.25882754526445 1.7269249406698224, 33.24983683067812 1.7269261509285132, 33.249835652324684 1.7178790058972357, 33.25882632450752 1.717877801982593))"
73,11139,Dwanwana FM,25.0,140.69459533691406,1.7314546370455353,33.209379028844474,"https://www.google.com/maps?q=1.7314546370455353,33.209379028844474",main,1.7319842,33.2087937,87.58226265003151,"https://www.google.com/maps?q=1.7319842,33.2087937",25,True,"Owerai A, Kaberamaido, Eastern Region, Uganda",Owerai A,Kaberamaido,Eastern Region,Uganda,1.7377243,33.2036785,0.8525294764010731,"POLYGON ((33.21387391257566 1.7269305641425, 33.2138749266202 1.7359777314425666, 33.2048841406434 1.7359787330129854, 33.2048831692261 1.7269315604901223, 33.21387391257566 1.7269305641425))"
74,11991,Dwanwana FM,25.0,174.43814086914062,1.7495433863491765,33.254335206844644,"https://www.google.com/maps?q=1.7495433863491765,33.254335206844644",replacement,1.7487317,33.2535278,126.99002095369738,"https://www.google.com/maps?q=1.7487317,33.2535278",25,True,"Amsim B, Kaberamaido, Eastern Region, Uganda",Amsim B,Kaberamaido,Eastern Region,Uganda,1.7479372,33.2543588,0.12754422082153422,"POLYGON ((33.258830006044015 1.7450192154445074, 33.25883124606693 1.7540663515229107, 33.24984040293168 1.7540675808140938, 33.24983920598147 1.7450204383914687, 33.258830006044015 1.7450192154445074))"
75,10463,Dwanwana FM,25.0,218.4664306640625,1.7676470387530812,33.17341925441695,"https://www.google.com/maps?q=1.7676470387530812,33.17341925441695",replacement,1.7678014,33.1732199,27.98849861762271,"https://www.google.com/maps?q=1.7678014,33.1732199",25,True,"Alipa, Kaberamaido, Eastern Region, Uganda",Alipa,Kaberamaido,Eastern Region,Uganda,1.7675034951675843,33.17300192664807,0.04090627017383338,"POLYGON ((33.177914310194964 1.7631230349865017, 33.1779151713878 1.7721702183283736, 33.16892419367362 1.772171065173982, 33.16892337600081 1.7631238775062144, 33.177914310194964 1.7631230349865017))"
76,11485,Dwanwana FM,25.0,300.64453125,1.7857354916875958,33.22736711693801,"https://www.google.com/maps?q=1.7857354916875958,33.22736711693801",replacement,1.7855125,33.227366,24.657697959926463,"https://www.google.com/maps?q=1.7855125,33.227366",25,True,"Apili, Kaberamaido, Eastern Region, Uganda",Apili,Kaberamaido,Eastern Region,Uganda,1.7862514160828025,33.22725600270899,0.0826174730549711,"POLYGON ((33.231862065218536 1.781211367057909, 33.231863199035935 1.790258517955062, 33.22287216344883 1.7902596395678685, 33.22287107359694 1.7812124829990792, 33.231862065218536 1.781211367057909))"
77,12838,Dwanwana FM,25.0,505.7868957519531,1.7223953959000478,33.29928496306819,"https://www.google.com/maps?q=1.7223953959000478,33.29928496306819",main,1.7224395,33.2992152,9.167326219598646,"https://www.google.com/maps?q=1.7224395,33.2992152",25,True,"Palatao, Kalaki, Eastern Region, Uganda",Palatao,Kalaki,Eastern Region,Uganda,1.7210863,33.2986379,0.16283589945163923,"POLYGON ((33.303779584635095 1.7178711440495857, 33.303781017407175 1.726918247652723, 33.2947903371607 1.7269196718187538, 33.29478894679132 1.7178725607502885, 33.303779584635095 1.7178711440495857))"
78,12165,Dwanwana FM,25.0,174.64755249023438,1.7857306626850322,33.263331123764395,"https://www.google.com/maps?q=1.7857306626850322,33.263331123764395",replacement,1.7856849,33.2632529,10.067722542118942,"https://www.google.com/maps?q=1.7856849,33.2632529",25,True,"Atek, Kaberamaido, Eastern Region, Uganda",Atek,Kaberamaido,Eastern Region,Uganda,1.7855048,33.27319,1.105838698529494,"POLYGON ((33.26782597193926 1.781206462016472, 33.26782728161723 1.7902535879843449, 33.258836270383185 1.79025488700465, 33.258835004670125 1.781207754468048, 33.26782597193926 1.781206462016472))"
79,12505,Dwanwana FM,25.0,280.6337280273437,1.7857279827465566,33.281313088863634,"https://www.google.com/maps?q=1.7857279827465566,33.281313088863634",replacement,1.7857606,33.2813095,3.6287025752179973,"https://www.google.com/maps?q=1.7857606,33.2813095",25,True,"Atek, Kaberamaido, Eastern Region, Uganda",Atek,Kaberamaido,Eastern Region,Uganda,1.7855048,33.27319,0.9038653132455698,"POLYGON ((33.285807886316846 1.7812037447318347, 33.28580928392415 1.7902508568894373, 33.27681828620525 1.7902522446125524, 33.276816932562525 1.78120512543768, 33.285807886316846 1.7812037447318347))"
80,7909,Dwanwana FM,25.0,436.8104553222656,1.7314658745524254,33.03855381790865,"https://www.google.com/maps?q=1.7314658745524254,33.03855381790865",replacement,1.732154,33.0385649,76.09966183601573,"https://www.google.com/maps?q=1.732154,33.0385649",25,True,"Amati, Dokolo, Northern Region, Uganda",Amati,Dokolo,,Uganda,1.7313164579139682,33.04011525569201,0.19579422417377437,"POLYGON ((33.04304913582207 1.726942178828753, 33.043049339933596 1.735989407012335, 33.03405849551541 1.7359895914372148, 33.03405833403251 1.7269423622919298, 33.04304913582207 1.726942178828753))"
81,8928,Dwanwana FM,25.0,359.6151123046875,1.722416779505401,33.092498293742764,"https://www.google.com/maps?q=1.722416779505401,33.092498293742764",main,1.7225338,33.0925017,12.945123475051373,"https://www.google.com/maps?q=1.7225338,33.0925017",25,True,"Akora, Kaberamaido, Eastern Region, Uganda",Akora,Kaberamaido,Eastern Region,Uganda,1.7205233,33.095203,0.37385329583579674,"POLYGON ((33.09699345884532 1.7178929610206661, 33.09699391632128 1.7269401795887067, 33.08800312428657 1.7269406197548298, 33.08800270921593 1.7178933988794847, 33.09699345884532 1.7178929610206661))"
82,10122,Dwanwana FM,25.0,778.2218017578125,1.7586014463713047,33.155436583767454,"https://www.google.com/maps?q=1.7586014463713047,33.155436583767454",replacement,1.7587549,33.155449,17.024332087346846,"https://www.google.com/maps?q=1.7587549,33.155449",25,True,"Majengo A, Kaberamaido, Eastern Region, Uganda",Majengo A,Kaberamaido,Eastern Region,Uganda,1.7587495940674298,33.15544930671787,0.000587696939526139,"POLYGON ((33.15993166743089 1.7540774836937616, 33.159932437615105 1.7631246763458082, 33.15094149526094 1.763125431505184, 33.15094076837385 1.754078234975827, 33.15993166743089 1.7540774836937616))"
83,8764,Dwanwana FM,25.0,338.5701904296875,1.7767005130020312,33.08350992235879,"https://www.google.com/maps?q=1.7767005130020312,33.08350992235879",replacement,1.7764711,33.0837759,38.97861100281347,"https://www.google.com/maps?q=1.7764711,33.0837759",25,True,"Amati, Dokolo, Northern Region, Uganda",Amati,Dokolo,,Uganda,1.776490079389539,33.08373519475955,0.004991723203282493,"POLYGON ((33.08800523239331 1.7721767110760238, 33.088005660565706 1.7812239266975, 33.07901460723054 1.7812243365785239, 33.07901422280202 1.7721771188738964, 33.08800523239331 1.7721767110760238))"
84,8765,Dwanwana FM,25.0,348.4818725585937,1.7857477292204667,33.08351032970125,"https://www.google.com/maps?q=1.7857477292204667,33.08351032970125",replacement,1.7860199,33.0831642,48.876745235796605,"https://www.google.com/maps?q=1.7860199,33.0831642",25,True,"Amati, Dokolo, Northern Region, Uganda",Amati,Dokolo,,Uganda,1.7839715876197495,33.087277691010655,0.5106663085080536,"POLYGON ((33.088005660565706 1.7812239266975, 33.08800609092192 1.7902711414275032, 33.079014993619744 1.7902715533916977, 33.07901460723054 1.7812243365785239, 33.088005660565706 1.7812239266975))"
85,8423,Dwanwana FM,25.0,163.75778198242188,1.767654021809011,33.06552753761756,"https://www.google.com/maps?q=1.767654021809011,33.06552753761756",replacement,1.7668179,33.0627263,325.1082505223315,"https://www.google.com/maps?q=1.7668179,33.0627263",25,True,"Obako, Dokolo, Northern Region, Uganda",Obako,Dokolo,,Uganda,1.7672459,33.0579815,0.5300562268589886,"POLYGON ((33.070022872303085 1.7631302623162175, 33.070023211250096 1.7721774827666295, 33.06103219796061 1.7721778027541788, 33.06103190253448 1.7631305806691913, 33.070022872303085 1.7631302623162175))"
86,7915,Dwanwana FM,25.0,352.25408935546875,1.7857492307834573,33.03855493194656,"https://www.google.com/maps?q=1.7857492307834573,33.03855493194656",main,1.7847427,33.0389751,120.71755225158138,"https://www.google.com/maps?q=1.7847427,33.0389751",25,True,"Awidi (adeknino), Dokolo, Northern Region, Uganda",Awidi (adeknino),Dokolo,,Uganda,1.784964886654562,33.041788200969854,0.31396478893749963,"POLYGON ((33.043050376513875 1.781225534807999, 33.04305058703465 1.7902727577110298, 33.03405948215985 1.7902729479063155, 33.03405931560627 1.7812257240415286, 33.043050376513875 1.781225534807999))"
87,9107,Dwanwana FM,25.0,251.9928436279297,1.8038412394254537,33.10149347352101,"https://www.google.com/maps?q=1.8038412394254537,33.10149347352101",main,1.8035233,33.1013633,38.022907872878065,"https://www.google.com/maps?q=1.8035233,33.1013633",25,True,"Ararak B, Dokolo, Northern Region, Uganda",Ararak B,Dokolo,,Uganda,1.8029871183129493,33.101830615709105,0.07885863251632455,"POLYGON ((33.10598879967174 1.7993173934329918, 33.10598932322205 1.8083646015272048, 33.09699814190758 1.808365107262187, 33.09699766277039 1.799317896636191, 33.10598879967174 1.7993173934329918))"
88,9619,Dwanwana FM,25.0,245.1168670654297,1.8219339246320152,33.12846821400388,"https://www.google.com/maps?q=1.8219339246320152,33.12846821400388",replacement,1.8211651,33.1290691,108.15290158410923,"https://www.google.com/maps?q=1.8211651,33.1290691",25,True,"Omodoi B, Kaberamaido, Eastern Region, Uganda",Omodoi B,Kaberamaido,Eastern Region,Uganda,1.8207118,33.1238179,0.5864137888240932,"POLYGON ((33.13296351058052 1.8174100137579026, 33.13296417396903 1.826457211096194, 33.12397291171938 1.826457857646645, 33.12397229319003 1.8174106571036535, 33.13296351058052 1.8174100137579026))"
89,9283,Dwanwana FM,25.0,230.3270263671875,1.8581239365044624,33.11048795524375,"https://www.google.com/maps?q=1.8581239365044624,33.11048795524375",replacement,1.8581393,33.1102406,27.57346067486484,"https://www.google.com/maps?q=1.8581393,33.1102406",25,True,"Olumai B, Dokolo, Northern Region, Uganda",Olumai B,Dokolo,,Uganda,1.8539867,33.1080857,0.518001736356951,"POLYGON ((33.1149833845246 1.853600064013751, 33.11498396960906 1.8626472638534053, 33.105992519760676 1.8626478309274526, 33.1059919804281 1.853600628331572, 33.1149833845246 1.853600064013751))"
90,9286,Dwanwana FM,25.0,197.0218200683593,1.8852655359542487,33.11048965422701,"https://www.google.com/maps?q=1.8852655359542487,33.11048965422701",replacement,1.8847826,33.1105668,54.086272100639185,"https://www.google.com/maps?q=1.8847826,33.1105668",25,True,"Adwongger, Dokolo, Northern Region, Uganda",Adwongger,Dokolo,,Uganda,1.8824019202747957,33.10955724033203,0.28620684075000863,"POLYGON ((33.11498514833934 1.8807416607314684, 33.11498574198532 1.8897888577608342, 33.105994153542355 1.8897894331037237, 33.105993606317746 1.88074223331805, 33.11498514833934 1.8807416607314684))"
91,11149,Dwanwana FM,25.0,219.26287841796875,1.8219262920610675,33.20938921598518,"https://www.google.com/maps?q=1.8219262920610675,33.20938921598518",replacement,1.8222062,33.2091603,40.083434601442775,"https://www.google.com/maps?q=1.8222062,33.2091603",25,True,"Kaberamaido, Eastern Region, Uganda",,Kaberamaido,Eastern Region,Uganda,1.8202516032711493,33.21057947219572,0.2676666459725451,"POLYGON ((33.21388429183489 1.8174021974798604, 33.213885358951515 1.826449355882908, 33.20489413443231 1.8264504096839476, 33.20489311217391 1.8174032460576173, 33.21388429183489 1.8174021974798604))"
92,11153,Dwanwana FM,25.0,212.7423553466797,1.8581149287757643,33.20939343633062,"https://www.google.com/maps?q=1.8581149287757643,33.20939343633062",main,1.8558758,33.209943,255.03109950928072,"https://www.google.com/maps?q=1.8558758,33.209943",25,True,"Omunat A, Kaberamaido, Eastern Region, Uganda",Omunat A,Kaberamaido,Eastern Region,Uganda,1.8557575,33.2103091,0.04278175026441419,"POLYGON ((33.21388859214946 1.8535908255864426, 33.21388968049857 1.862637980304003, 33.20489827431512 1.8626390549986764, 33.20489723171678 1.8535918950576311, 33.21388859214946 1.8535908255864426))"
93,10645,Dwanwana FM,25.0,403.5484008789063,1.8762122799658365,33.182421129589805,"https://www.google.com/maps?q=1.8762122799658365,33.182421129589805",main,1.8761162,33.1824293,10.66290678173885,"https://www.google.com/maps?q=1.8761162,33.1824293",25,True,"Katingi, Kaberamaido, Eastern Region, Uganda",Katingi,Kaberamaido,Eastern Region,Uganda,1.8761502477072853,33.18242661703375,0.0037766566108204985,"POLYGON ((33.186916402650866 1.8716882347301484, 33.186917363025394 1.8807354025756884, 33.17792585008374 1.88073634793098, 33.17792493590666 1.8716891755347502, 33.186916402650866 1.8716882347301484))"
94,10646,Dwanwana FM,25.0,290.6802062988281,1.8852594496168773,33.18242206913535,"https://www.google.com/maps?q=1.8852594496168773,33.18242206913535",main,1.885265,33.1821417,31.199805496684103,"https://www.google.com/maps?q=1.885265,33.1821417",25,True,"Aoya B, Kaberamaido, Eastern Region, Uganda",Aoya B,Kaberamaido,Eastern Region,Uganda,1.8848774283359009,33.182355481091484,0.049013938987198365,"POLYGON ((33.186917363025394 1.8807354025756884, 33.186918328039155 1.8897825694796464, 33.17792676867688 1.889783519385674, 33.17792585008374 1.88073634793098, 33.186917363025394 1.8807354025756884))"
95,8431,Dwanwana FM,25.0,139.7417755126953,1.840031763261578,33.06553012719191,"https://www.google.com/maps?q=1.840031763261578,33.06553012719191",main,1.83975,33.0699944,497.68226112406205,"https://www.google.com/maps?q=1.83975,33.0699944",25,True,"Ocekikot, Dokolo, Northern Region, Uganda",Ocekikot,Dokolo,,Uganda,1.8355111,33.0694889,0.47208049785776324,"POLYGON ((33.07002563253303 1.8355080008327043, 33.070025985381655 1.8445552140611972, 33.06103461589295 1.8445555471259, 33.06103430835018 1.8355083322627095, 33.07002563253303 1.8355080008327043))"
96,8264,Dwanwana FM,25.0,351.6832580566406,1.8671737152522163,33.05653964060047,"https://www.google.com/maps?q=1.8671737152522163,33.05653964060047",replacement,1.8675671,33.0566559,45.381204817989826,"https://www.google.com/maps?q=1.8675671,33.0566559",25,True,"Oyengopere, Dokolo, Northern Region, Uganda",Oyengopere,Dokolo,,Uganda,1.8674999674290977,33.05661127028753,0.008930882313040327,"POLYGON ((33.06103523552277 1.8626499740785498, 33.061035547609904 1.871697186158966, 33.052044039349866 1.8716974777554323, 33.05204377323808 1.862650264264572, 33.06103523552277 1.8626499740785498))"
97,8437,Dwanwana FM,25.0,263.6403503417969,1.894315030802504,33.06553213767632,"https://www.google.com/maps?q=1.894315030802504,33.06553213767632",main,1.8922886,33.0665886,253.03136391189207,"https://www.google.com/maps?q=1.8922886,33.0665886",25,True,"Adwongdoki, Dokolo, Northern Region, Uganda",Adwongdoki,Dokolo,,Uganda,1.8919967674929288,33.06870288876557,0.23743713488327453,"POLYGON ((33.070027775694086 1.8897912662669407, 33.07002813897074 1.8988384738890993, 33.06103649296063 1.8988388167623298, 33.06103617632879 1.8897916075053764, 33.070027775694086 1.8897912662669407))"
98,9797,Dwanwana FM,25.0,570.2319946289062,1.894310792547005,33.137465047933425,"https://www.google.com/maps?q=1.894310792547005,33.137465047933425",main,1.8934885,33.1377723,97.13914877743318,"https://www.google.com/maps?q=1.8934885,33.1377723",25,True,"Dokolo, Northern Region, Uganda",,Dokolo,,Uganda,1.8934629202514832,33.13778568034755,0.003196335174647972,"POLYGON ((33.14196048929763 1.8897868508082707, 33.14196122573074 1.8988340372769843, 33.13296959987495 1.8988347565109978, 33.132968910086134 1.889787566613028, 33.14196048929763 1.8897868508082707))"
99,9801,Dwanwana FM,25.0,444.5791015625,1.9304995376489307,33.13746792769753,"https://www.google.com/maps?q=1.9304995376489307,33.13746792769753",replacement,1.9309639,33.1376427,54.90554154278657,"https://www.google.com/maps?q=1.9309639,33.1376427",25,True,"Lira - Mbale Road, Omukuceke, Dokolo, Northern Region, Uganda",Omukuceke,Dokolo,,Uganda,1.931889602312982,33.13805731636346,0.11227397460208755,"POLYGON ((33.14196345617198 1.9259755909625045, 33.14196420670001 1.935022773602399, 33.13297239203518 1.9350235065537766, 33.1329716890442 1.925976320484489, 33.14196345617198 1.9259755909625045))"
100,9804,Dwanwana FM,25.0,269.2615966796875,1.9576410863455935,33.13747012334962,"https://www.google.com/maps?q=1.9576410863455935,33.13747012334962",replacement,1.9586117,33.1369765,120.56074983116545,"https://www.google.com/maps?q=1.9586117,33.1369765",25,True,"Adagamone, Dokolo, Northern Region, Uganda",Adagamone,Dokolo,,Uganda,1.9590349,33.136957,0.04684584448679397,"POLYGON ((33.141965718328045 1.9531171359721429, 33.141966479428234 1.9621643156929507, 33.13297452081304 1.9621650589327164, 33.13297380791951 1.9531178757824115, 33.141965718328045 1.9531171359721429))"
101,11838,Dwanwana FM,25.0,114.67527770996094,1.9033459336741634,33.24536524406171,"https://www.google.com/maps?q=1.9033459336741634,33.24536524406171",replacement,1.9054069,33.2450099,231.2962544363734,"https://www.google.com/maps?q=1.9054069,33.2450099",25,True,"Kaburuburu, Kalaki, Eastern Region, Uganda",Kaburuburu,Kalaki,Eastern Region,Uganda,1.9056142,33.2418381,0.3536329077033889,"POLYGON ((33.24986039733166 1.8988217370087292, 33.2498616996893 1.907868863879649, 33.24087008398022 1.9078701537642224, 33.24086882848857 1.8988230207723498, 33.24986039733166 1.8988217370087292))"
102,10650,Dwanwana FM,25.0,456.2171020507813,1.9214481187374424,33.18242587259581,"https://www.google.com/maps?q=1.9214481187374424,33.18242587259581",main,1.920678,33.1815571,128.81860148629238,"https://www.google.com/maps?q=1.920678,33.1815571",25,True,"Saint John Bosco Secondary School, Lira - Mbale Road, Dokolo, Northern Region, Uganda",,Dokolo,,Uganda,1.921676,33.1789228,0.3131725115630983,"POLYGON ((33.18692125091707 1.9169240644968084, 33.186922234488975 1.9259712275892158, 33.17793048721248 1.9259721956986404, 33.1779295509539 1.9169250280553147, 33.18692125091707 1.9169240644968084))"
103,11163,Dwanwana FM,25.0,247.27749633789065,1.9485864548003953,33.20940435098996,"https://www.google.com/maps?q=1.9485864548003953,33.20940435098996",replacement,1.9480579,33.2106675,152.20115137491123,"https://www.google.com/maps?q=1.9480579,33.2106675",25,True,"Amiro, Dokolo, Northern Region, Uganda",Amiro,Dokolo,,Uganda,1.9477175,33.2117116,0.1221080107211036,"POLYGON ((33.21389971453735 1.9440623302485678, 33.21390085597715 1.9531094754357612, 33.20490898001172 1.9531106023681188, 33.204907886554466 1.944063451956921, 33.21389971453735 1.9440623302485678))"
104,10825,Dwanwana FM,25.0,284.33367919921875,1.9666829205144862,33.19142268946248,"https://www.google.com/maps?q=1.9666829205144862,33.19142268946248",main,1.9664257,33.1915409,31.335686360752124,"https://www.google.com/maps?q=1.9664257,33.1915409",25,True,"Aceniworo (adagmon), Dokolo, Northern Region, Uganda",Aceniworo (adagmon),Dokolo,,Uganda,1.9686165,33.1908277,0.2549126347852018,"POLYGON ((33.19591814929768 1.9621588353437185, 33.195919204499226 1.9712059887944657, 33.18692722194852 1.971207028497907, 33.1869262151762 1.9621598702716894, 33.19591814929768 1.9621588353437185))"
105,6910,Dwanwana FM,25.0,296.9305419921875,1.9214578463739667,32.98460725364507,"https://www.google.com/maps?q=1.9214578463739667,32.98460725364507",replacement,1.9213913,32.9844542,18.55021185965513,"https://www.google.com/maps?q=1.9213913,32.9844542",25,True,"Agwata Tidi, Dokolo, Northern Region, Uganda",Agwata Tidi,Dokolo,,Uganda,1.9203058,32.9861972,0.22806295816250408,"POLYGON ((32.98910317522097 1.916934291778695, 32.989103117881925 1.925981503174879, 32.980111324997495 1.9259814214871567, 32.980111429651075 1.9169342104749727, 32.98910317522097 1.916934291778695))"
106,8105,Dwanwana FM,25.0,248.8938446044922,1.9666932804043744,33.0475509005153,"https://www.google.com/maps?q=1.9666932804043744,33.0475509005153",main,1.9665253,33.0484405,100.699726555459,"https://www.google.com/maps?q=1.9665253,33.0484405",25,True,"Ajet, Dokolo, Northern Region, Uganda",Ajet,Dokolo,,Uganda,1.966517846367287,33.048465161402056,0.0028648065240311237,"POLYGON ((33.0520467715167 1.96216956040406, 33.05204705183903 1.9712167633434792, 33.043055021828025 1.9712170216158202, 33.04305478993619 1.962169817490129, 33.0520467715167 1.96216956040406))"
107,8448,Dwanwana FM,25.0,457.5560302734375,1.9938342652887435,33.06553597565366,"https://www.google.com/maps?q=1.9938342652887435,33.06553597565366",replacement,1.9937481,33.0648496,76.95314931869721,"https://www.google.com/maps?q=1.9937481,33.0648496",25,True,"Ayito (adwoki), Dokolo, Northern Region, Uganda",Ayito (adwoki),Dokolo,,Uganda,1.993489180101613,33.066419646192195,0.17700248160373944,"POLYGON ((33.07003186734366 1.9893104971031623, 33.0700322497426 1.9983576940243735, 33.06104007590831 1.998358054881437, 33.061039742609495 1.989310856325247, 33.07003186734366 1.9893104971031623))"
108,14380,Dwanwana FM,25.0,212.8066864013672,1.8309451932853125,33.38022276403032,"https://www.google.com/maps?q=1.8309451932853125,33.38022276403032",main,1.8301291,33.379079,156.0064229238086,"https://www.google.com/maps?q=1.8301291,33.379079",25,True,"Apokor, Kalaki, Eastern Region, Uganda",Apokor,Kalaki,Eastern Region,Uganda,1.8301255512916808,33.37907093189753,0.000979699245313687,"POLYGON ((33.38471736194954 1.8264207364413914, 33.384719290888384 1.835467752073035, 33.37572816029586 1.8354696750704595, 33.375726276434904 1.8264226499541856, 33.38471736194954 1.8264207364413914))"
109,13703,Dwanwana FM,25.0,284.1519470214844,1.8580936688197245,33.344263475508335,"https://www.google.com/maps?q=1.8580936688197245,33.344263475508335",replacement,1.8582319,33.3441926,17.199266434592126,"https://www.google.com/maps?q=1.8582319,33.3441926",25,True,"Apari, Kalaki, Eastern Region, Uganda",Apari,Kalaki,Eastern Region,Uganda,1.8605649340088037,33.344532040178954,0.2607260429684941,"POLYGON ((33.34875823668171 1.8535692729231872, 33.348760011273164 1.8626163223737762, 33.339768708146934 1.8626180892510875, 33.33976697930365 1.8535710312127052, 33.34875823668171 1.8535692729231872))"
110,11998,Dwanwana FM,25.0,253.4846649169922,1.8128733393784133,33.254343890912445,"https://www.google.com/maps?q=1.8128733393784133,33.254343890912445",main,1.8144023,33.2554848,211.41769514036693,"https://www.google.com/maps?q=1.8144023,33.2554848",25,True,"Akarowok, Kaberamaido, Eastern Region, Uganda",Akarowok,Kaberamaido,Eastern Region,Uganda,1.8132598,33.2517736,0.43181651869067983,"POLYGON ((33.25883882107821 1.8083491493830315, 33.25884010606049 1.8173962792157605, 33.24984895516968 1.8173975529181452, 33.24984771482179 1.808350416740781, 33.25883882107821 1.8083491493830315))"
111,12000,Dwanwana FM,25.0,305.2666015625,1.830967603567759,33.254346428878186,"https://www.google.com/maps?q=1.830967603567759,33.254346428878186",main,1.8308761,33.2537937,62.325075414224735,"https://www.google.com/maps?q=1.8308761,33.2537937",25,True,"Omarai, Kaberamaido, Eastern Region, Uganda",Omarai,Kaberamaido,Eastern Region,Uganda,1.833333,33.25,0.5019691771730255,"POLYGON ((33.25884139746617 1.8264434081381458, 33.25884269529541 1.8354905361456646, 33.24985145446644 1.835491822537503, 33.24985020171785 1.8264446881852276, 33.25884139746617 1.8264434081381458))"
112,13193,Dwanwana FM,25.0,277.71893310546875,1.8580987494070726,33.317289597364805,"https://www.google.com/maps?q=1.8580987494070726,33.317289597364805",main,1.8580902,33.3170466,27.05273762133098,"https://www.google.com/maps?q=1.8580902,33.3170466",25,True,"Odikara, Kalaki, Eastern Region, Uganda",Odikara,Kalaki,Eastern Region,Uganda,1.8596722288006728,33.3215257912606,0.5281714468903393,"POLYGON ((33.32178443947385 1.853574410031782, 33.32178607682016 1.8626214845729059, 33.31279474906591 1.8626231130169948, 33.31279315746838 1.8535760305609228, 33.32178443947385 1.853574410031782))"
113,13026,Dwanwana FM,25.0,276.38494873046875,1.8852416055670873,33.30830302922278,"https://www.google.com/maps?q=1.8852416055670873,33.30830302922278",replacement,1.8865345,33.3070794,197.41450849061624,"https://www.google.com/maps?q=1.8865345,33.3070794",25,True,"Ocanga, Kalaki, Eastern Region, Uganda",Ocanga,Kalaki,Eastern Region,Uganda,1.886955256556378,33.306019492501875,0.12677094771020603,"POLYGON ((33.31279795555034 1.8807172751244527, 33.31279957043765 1.8897643547667842, 33.303808096334485 1.8897659601384982, 33.30380652786561 1.880718872805277, 33.31279795555034 1.8807172751244527))"
114,14047,Dwanwana FM,25.0,358.418701171875,1.8942781885843074,33.36225346339054,"https://www.google.com/maps?q=1.8942781885843074,33.36225346339054",main,1.8938576,33.3623783,48.536495548541765,"https://www.google.com/maps?q=1.8938576,33.3623783",25,True,"Opokoro, Kalaki, Eastern Region, Uganda",Opokoro,Kalaki,Eastern Region,Uganda,1.8937103581219132,33.36231006070855,0.017964527622087566,"POLYGON ((33.3667482442093 1.8897537393725217, 33.36675014670539 1.8988007672119798, 33.357758675891226 1.8988026625233188, 33.35775682003543 1.889755625647153, 33.3667482442093 1.8897537393725217))"
115,13882,Dwanwana FM,25.0,343.26690673828125,1.9395152503570054,33.35327128376886,"https://www.google.com/maps?q=1.9395152503570054,33.35327128376886",replacement,1.9381359,33.3537884,163.01246407146118,"https://www.google.com/maps?q=1.9381359,33.3537884",25,True,"Lira - Mbale Road, Apapai, Kalaki, Eastern Region, Uganda",Apapai,Kalaki,Eastern Region,Uganda,1.9372959415768547,33.35323965398996,0.11114746869804175,"POLYGON ((33.357766188113374 1.9349908004635912, 33.35776808836981 1.94403783253492, 33.348776372125805 1.9440397248687846, 33.348774519625756 1.9349926839845943, 33.357766188113374 1.9349908004635912))"
116,13537,Dwanwana FM,25.0,317.99267578125,1.8942836497651823,33.33527908150916,"https://www.google.com/maps?q=1.8942836497651823,33.33527908150916",main,1.8951124,33.3356098,98.75066668733287,"https://www.google.com/maps?q=1.8951124,33.3356098",25,True,"Ocukai, Kalaki, Eastern Region, Uganda",Ocukai,Kalaki,Eastern Region,Uganda,1.895136360454064,33.33563317920316,0.0037128819631153474,"POLYGON ((33.33977394527255 1.8897592577463744, 33.33977570784705 1.8988063120230894, 33.33078421106337 1.898808066211071, 33.33078249512984 1.8897610035705155, 33.33977394527255 1.8897592577463744))"
117,13540,Dwanwana FM,25.0,278.80126953125,1.9214248208498892,33.335284336737516,"https://www.google.com/maps?q=1.9214248208498892,33.335284336737516",main,1.9215809,33.335709,50.300357945673944,"https://www.google.com/maps?q=1.9215809,33.335709",25,True,"Olorok, Kalaki, Eastern Region, Uganda",Olorok,Kalaki,Eastern Region,Uganda,1.9223307473889915,33.33620699267512,0.09972265325998649,"POLYGON ((33.33977925829633 1.9169004177167797, 33.33978104617153 1.9259474691247003, 33.33078940812594 1.9259492484047056, 33.330787667561204 1.916902188632694, 33.33977925829633 1.9169004177167797))"
118,12863,Dwanwana FM,25.0,327.7906494140625,1.9485727978024616,33.29932257343463,"https://www.google.com/maps?q=1.9485727978024616,33.29932257343463",main,1.9480402,33.299082,64.6890669948363,"https://www.google.com/maps?q=1.9480402,33.299082",25,True,"Odikara, Kalaki, Eastern Region, Uganda",Odikara,Kalaki,Eastern Region,Uganda,1.946339121006934,33.29356183189515,0.6423089577713115,"POLYGON ((33.30381766550504 1.9440484640946878, 33.303819286761524 1.9530955447046188, 33.294827473938696 1.9530971555267298, 33.29482590066308 1.9440500674496766, 33.30381766550504 1.9440484640946878))"
119,13034,Dwanwana FM,25.0,262.958984375,1.9576182428577804,33.308316007575385,"https://www.google.com/maps?q=1.9576182428577804,33.308316007575385",replacement,1.9568333,33.3080235,92.69574747243512,"https://www.google.com/maps?q=1.9568333,33.3080235",25,True,"Aminikwach, Kalaki, Eastern Region, Uganda",Aminikwach,Kalaki,Eastern Region,Uganda,1.9530999,33.3100104,0.46828093493611095,"POLYGON ((33.31281109204247 1.9530938854945252, 33.3128127690447 1.9621409574343733, 33.30382091555988 1.9621426243359752, 33.303819286761524 1.9530955447046188, 33.31281109204247 1.9530938854945252))"
120,12356,Dwanwana FM,25.0,244.3036193847656,1.9757187146024227,33.27235156497157,"https://www.google.com/maps?q=1.9757187146024227,33.27235156497157",replacement,1.9758023,33.2708741,164.63316666448944,"https://www.google.com/maps?q=1.9758023,33.2708741",25,True,"Akworatora, Kalaki, Eastern Region, Uganda",Akworatora,Kalaki,Eastern Region,Uganda,1.9717371,33.2710943,0.4501789710025497,"POLYGON ((33.27684680180383 1.971194433743388, 33.2768482997345 1.9802415331331331, 33.267856320341714 1.9802430191731377, 33.2678548710621 1.9711959129889873, 33.27684680180383 1.971194433743388))"
121,13891,Dwanwana FM,25.0,334.68438720703125,2.0209385387344465,33.353288526404484,"https://www.google.com/maps?q=2.0209385387344465,33.353288526404484",replacement,2.0203823,33.3536167,71.52616628305228,"https://www.google.com/maps?q=2.0203823,33.3536167",25,True,"Akisim, Kalaki, Eastern Region, Uganda",Akisim,Kalaki,Eastern Region,Uganda,2.020550163995266,33.354189127174934,0.0663329013185234,"POLYGON ((33.357783610151024 2.0164140536413053, 33.35778559034348 2.0254610767786554, 33.34879343424777 2.0254630484323624, 33.34879150382062 2.0164160164813283, 33.357783610151024 2.0164140536413053))"
122,11000,Dwanwana FM,25.0,310.71612548828125,2.0119176011956643,33.20042010466977,"https://www.google.com/maps?q=2.0119176011956643,33.20042010466977",replacement,2.0130181,33.201305,156.52355473987117,"https://www.google.com/maps?q=2.0130181,33.201305",25,True,"Olor, Dokolo, Northern Region, Uganda",Olor,Dokolo,,Uganda,2.0139341517996745,33.198167184808895,0.3634847330778335,"POLYGON ((33.20491564757918 2.0073934841419674, 33.20491677664568 2.016440627613177, 33.195924553464714 2.016441741154966, 33.19592347394348 2.0073945926837036, 33.20491564757918 2.0073934841419674))"
123,11682,Dwanwana FM,25.0,428.1277465820313,2.0300070046026795,33.23639147273682,"https://www.google.com/maps?q=2.0300070046026795,33.23639147273682",main,2.0300351,33.2363423,6.291060459923317,"https://www.google.com/maps?q=2.0300351,33.2363423",25,True,"Apado, Dokolo, Northern Region, Uganda",Apado,Dokolo,,Uganda,2.02730294748514,33.235852171539364,0.30699085278426164,"POLYGON ((33.240886949487866 2.025482794064291, 33.2408882886953 2.034529913267955, 33.231895987445085 2.0345312384442518, 33.23189469822883 2.0254841133430856, 33.240886949487866 2.025482794064291))"
124,11344,Dwanwana FM,25.0,348.642822265625,2.048103813412449,33.21840934814033,"https://www.google.com/maps?q=2.048103813412449,33.21840934814033",replacement,2.0480958,33.2181463,29.277215889365237,"https://www.google.com/maps?q=2.0480958,33.2181463",25,True,"Odikara, Dokolo, Northern Region, Uganda",Odikara,Dokolo,,Uganda,2.0472605,33.2167219,0.18341640815604468,"POLYGON ((33.222904925196545 2.0435796429678788, 33.222906175490415 2.0526267717003455, 33.21391376229539 2.0526280069576583, 33.21391256243954 2.0435808727762446, 33.222904925196545 2.0435796429678788))"
125,11685,Dwanwana FM,25.0,234.8782958984375,2.0571483664660564,33.2363954418024,"https://www.google.com/maps?q=2.0571483664660564,33.2363954418024",replacement,2.0573409,33.237465,120.876046448783,"https://www.google.com/maps?q=2.0573409,33.237465",25,True,"Omanoabunga, Dokolo, Northern Region, Uganda",Omanoabunga,Dokolo,,Uganda,2.053306,33.2387888,0.4698394079913291,"POLYGON ((33.2408909850531 2.052624148614377, 33.24089234220378 2.061671264748088, 33.23189988964045 2.061672607617268, 33.231898583150745 2.0526254855858657, 33.2408909850531 2.052624148614377))"
126,13548,Dwanwana FM,25.0,231.66754150390625,1.9938012343703622,33.335298716877496,"https://www.google.com/maps?q=1.9938012343703622,33.335298716877496",replacement,1.9938744,33.3351563,17.79026322542603,"https://www.google.com/maps?q=1.9938744,33.3351563",25,True,"Moru, Kalaki, Eastern Region, Uganda",Moru,Kalaki,Eastern Region,Uganda,1.990650438355231,33.332977393718906,0.4311013779319511,"POLYGON ((33.339793797462555 1.989276801697637, 33.33979565281606 1.9983238452562284, 33.330803628251715 1.9983256914520373, 33.330801821994285 1.9892786395286681, 33.339793797462555 1.989276801697637))"
127,13380,Dwanwana FM,25.0,311.9578857421875,2.011897161662916,33.32631029238769,"https://www.google.com/maps?q=2.011897161662916,33.32631029238769",main,2.0116734,33.3258528,56.59208097904369,"https://www.google.com/maps?q=2.0116734,33.3258528",25,True,"Ojama, Kalaki, Eastern Region, Uganda",Ojama,Kalaki,Eastern Region,Uganda,2.011228084658022,33.32941961493173,0.3998565244560758,"POLYGON ((33.33080544272172 2.0073727423739567, 33.33080726540453 2.016419792289899, 33.32181513376532 2.0164216052579818, 33.32181336062528 2.0073745472014064, 33.33080544272172 2.0073727423739567))"
128,12872,Dwanwana FM,25.0,286.2151184082031,2.029996516808321,33.299337249829165,"https://www.google.com/maps?q=2.029996516808321,33.299337249829165",main,2.0307186,33.3023447,343.9743236333515,"https://www.google.com/maps?q=2.0307186,33.3023447",25,True,"Angoltok, Kalaki, Eastern Region, Uganda",Angoltok,Kalaki,Eastern Region,Uganda,2.028508037082815,33.304631539086536,0.35280764344204,"POLYGON ((33.30383252833798 2.025472153975245, 33.30383421747867 2.0345192256150897, 33.2948419627833 2.0345209036447875, 33.29484032363249 2.0254738245371193, 33.30383252833798 2.025472153975245))"
129,12194,Dwanwana FM,25.0,509.5956115722656,2.04809701646857,33.263371215487545,"https://www.google.com/maps?q=2.04809701646857,33.263371215487545",main,2.0489967,33.2639714,119.81278023436116,"https://www.google.com/maps?q=2.0489967,33.2639714",25,True,"Adagnyeko (adagnyeko), Dokolo, Northern Region, Uganda",Adagnyeko (adagnyeko),Dokolo,,Uganda,2.0494409,33.2617649,0.25033633312395115,"POLYGON ((33.26786665149807 2.0435727344369, 33.267868153979585 2.0526198325595386, 33.25887577069079 2.052621322101039, 33.258874318646455 2.043574217407758, 33.26786665149807 2.0435727344369))"
130,12026,Dwanwana FM,25.0,435.82135009765625,2.0661926910224446,33.254381720499325,"https://www.google.com/maps?q=2.0661926910224446,33.254381720499325",replacement,2.0657729,33.2537219,86.8490791872776,"https://www.google.com/maps?q=2.0657729,33.2537219",25,True,"Arwotoryema, Dokolo, Northern Region, Uganda",Arwotoryema,Dokolo,,Uganda,2.0669788,33.2527801,0.1695812541322424,"POLYGON ((33.25887722916293 2.0616684257663462, 33.25887869406302 2.0707155283991554, 33.24988620280189 2.070716979776974, 33.2498847887857 2.0616698707977235, 33.25887722916293 2.0616684257663462))"
131,9979,Dwanwana FM,25.0,333.1631774902344,2.0028761977044103,33.14646602759575,"https://www.google.com/maps?q=2.0028761977044103,33.14646602759575",replacement,2.0038016,33.1462099,106.2202924036174,"https://www.google.com/maps?q=2.0038016,33.1462099",25,True,"Iduny, Dokolo, Northern Region, Uganda",Iduny,Dokolo,,Uganda,2.0008164,33.1464205,0.33092084352222034,"POLYGON ((33.150961709221825 1.9983522182398712, 33.1509625372669 2.007399389351106, 33.141970337794696 2.0074001994755015, 33.14196955907235 1.9983530247102586, 33.150961709221825 1.9983522182398712))"
132,9640,Dwanwana FM,25.0,348.9482421875,2.011924894334124,33.128482377375654,"https://www.google.com/maps?q=2.011924894334124,33.128482377375654",main,2.0117821,33.1277824,79.4580354023611,"https://www.google.com/maps?q=2.0117821,33.1277824",25,True,"Abuki, Dokolo, Northern Region, Uganda",Abuki,Dokolo,,Uganda,2.011574909589438,33.12715317200279,0.07365610770513846,"POLYGON ((33.132978134797774 2.007400959863289, 33.132978867498764 2.0164481370535685, 33.12398661165421 2.016448850910029, 33.12398592849938 2.007401670514374, 33.132978134797774 2.007400959863289))"
133,8792,Dwanwana FM,25.0,211.7140350341797,2.0300222144718987,33.083522111441276,"https://www.google.com/maps?q=2.0300222144718987,33.083522111441276",main,2.0298743,33.0839732,52.781708085307685,"https://www.google.com/maps?q=2.0298743,33.0839732",25,True,"Ayito (adwoki), Dokolo, Northern Region, Uganda",Ayito (adwoki),Dokolo,,Uganda,2.026381622251497,33.08722278507062,0.5290075824168288,"POLYGON ((33.088018046880244 2.025498396688589, 33.08801853622027 2.0345455856398296, 33.079026167453954 2.034546053857343, 33.07902572810696 2.025498862822369, 33.088018046880244 2.025498396688589))"
134,8965,Dwanwana FM,25.0,219.3397979736328,2.0571632809541343,33.09251600748234,"https://www.google.com/maps?q=2.0571632809541343,33.09251600748234",main,2.0576036,33.0925917,49.41139787019767,"https://www.google.com/maps?q=2.0576036,33.0925917",25,True,"Barilwa, Amach, Dokolo, Northern Region, Uganda",Barilwa,Dokolo,,Uganda,2.0576423715037713,33.09260517012824,0.004541536321658269,"POLYGON ((33.097011988693275 2.0526394372397996, 33.09701253525249 2.0616866208151774, 33.08802001735299 2.061687146367165, 33.08801952145659 2.0526399604836376, 33.097011988693275 2.0526394372397996))"
135,7945,Dwanwana FM,25.0,378.8288879394531,2.057165509826466,33.038561018875285,"https://www.google.com/maps?q=2.057165509826466,33.038561018875285",replacement,2.0567429,33.037953,82.21336509361001,"https://www.google.com/maps?q=2.0567429,33.037953",25,True,"Barilwa, Amach, Lira District, Northern Region, Uganda",Barilwa,Lira District,,Uganda,2.0567771987795838,33.038021473372595,0.008509457560167232,"POLYGON ((33.043057156955975 2.0526418138198697, 33.04305739953755 2.061689007878892, 33.034064871873895 2.061689226931274, 33.03406467995539 2.052642031910204, 33.043057156955975 2.0526418138198697))"
136,9817,Dwanwana FM,25.0,343.0914001464844,2.0752543605636524,33.13747999278322,"https://www.google.com/maps?q=2.0752543605636524,33.13747999278322",main,2.0739305,33.1370418,154.29012270801826,"https://www.google.com/maps?q=2.0739305,33.1370418",25,True,"Te-ilwa (ocero), Dokolo, Northern Region, Uganda",Te-ilwa (ocero),Dokolo,,Uganda,2.0731775103885246,33.1376305565235,0.10593648501280759,"POLYGON ((33.14197588754862 2.0707303944481787, 33.141976694471424 2.0797775610494598, 33.132984088854464 2.079778348875964, 33.13298333304064 2.0707311788447145, 33.14197588754862 2.0707303944481787))"
137,8969,Dwanwana FM,25.0,409.1528625488281,2.093352011589454,33.092518110795545,"https://www.google.com/maps?q=2.093352011589454,33.092518110795545",replacement,2.0929251,33.0934246,111.34510058139455,"https://www.google.com/maps?q=2.0929251,33.0934246",25,True,"Olio, Agali, Lira District, Northern Region, Uganda",Olio,Lira District,,Uganda,2.0970654549285257,33.09143322142083,0.508604224387401,"POLYGON ((33.09701418938361 2.088828165333428, 33.0970147455787 2.097875344755155, 33.08802202279503 2.0978758795399925, 33.088021518155934 2.0888286978100155, 33.09701418938361 2.088828165333428))"
138,11349,Dwanwana FM,25.0,364.7224426269531,2.0933394577860813,33.218415541334934,"https://www.google.com/maps?q=2.0933394577860813,33.218415541334934",main,2.0925472,33.2196825,165.95085437768753,"https://www.google.com/maps?q=2.0925472,33.2196825",25,True,"Olor, Alebtong, Northern Region, Uganda",Olor,Alebtong,,Uganda,2.0941266862372796,33.21460941673725,0.5907659116872436,"POLYGON ((33.22291123201444 2.088815276307835, 33.22291250998337 2.097862399856505, 33.213919841248995 2.097863662359439, 33.21391861483453 2.088816533361526, 33.22291123201444 2.088815276307835))"
139,11351,Dwanwana FM,25.0,359.43731689453125,2.1114337082308214,33.21841805657797,"https://www.google.com/maps?q=2.1114337082308214,33.21841805657797",main,2.1117317,33.2179376,62.78890824942966,"https://www.google.com/maps?q=2.1117317,33.2179376",25,True,"Olor, Alebtong, Northern Region, Uganda",Olor,Alebtong,,Uganda,2.1115287315185634,33.220208408427254,0.2536097534631471,"POLYGON ((33.22291379348777 2.1069095223548517, 33.22291508252781 2.1159566437983526, 33.21392231001461 2.115957917199952, 33.21392107297564 2.1069107903070883, 33.22291379348777 2.1069095223548517))"
140,9436,Dokolo FM,25.0,215.9547271728516,1.7043208451629774,33.119469473789714,"https://www.google.com/maps?q=1.7043208451629774,33.119469473789714",main,1.7049341,33.1197464,74.48350430708935,"https://www.google.com/maps?q=1.7049341,33.1197464",25,True,"Owelai, Kaberamaido, Eastern Region, Uganda",Owelai,Kaberamaido,Eastern Region,Uganda,1.699625,33.1200175,0.5878295967844465,"POLYGON ((33.123964532246134 1.6997969689118073, 33.12396511078631 1.7088441809276302, 33.114974411227735 1.70884474348438, 33.114973874646545 1.6997975284885047, 33.123964532246134 1.6997969689118073))"
141,11817,Dokolo FM,25.0,301.8489990234375,1.7133560018948362,33.24533972916702,"https://www.google.com/maps?q=1.7133560018948362,33.24533972916702",main,1.7136196,33.24643870000001,125.70835874975786,"https://www.google.com/maps?q=1.7136196,33.24643870000001",25,True,,,,,,,,,"POLYGON ((33.24983448016988 1.708831860005459, 33.249835652324684 1.7178790058972357, 33.24084497394322 1.7178801672541997, 33.240843843969 1.7088330152426878, 33.24983448016988 1.708831860005459))"
142,10800,Dokolo FM,25.0,202.9082946777344,1.74050372863721,33.1913983993197,"https://www.google.com/maps?q=1.74050372863721,33.1913983993197",main,1.740168,33.1912939,38.90163658830822,"https://www.google.com/maps?q=1.740168,33.1912939",25,True,,,,,,,,,"POLYGON ((33.19589334958303 1.7359796915765375, 33.19589428323345 1.7450268682286862, 33.18690344446205 1.7450277885595649, 33.186902553662186 1.7359806071331045, 33.19589334958303 1.7359796915765375))"
143,11821,Dokolo FM,25.0,204.364990234375,1.7495445907909515,33.245344382146435,"https://www.google.com/maps?q=1.7495445907909515,33.245344382146435",main,1.7508671,33.2467094,210.8401510164492,"https://www.google.com/maps?q=1.7508671,33.2467094",25,True,,,,,,,,,"POLYGON ((33.24983920598147 1.7450204383914687, 33.24984040293168 1.7540675808140938, 33.24084955359722 1.754068766650553, 33.240848399719866 1.7450216181079703, 33.24983920598147 1.7450204383914687))"
144,10635,Dokolo FM,25.0,230.83058166503903,1.785740532539379,33.18241198313355,"https://www.google.com/maps?q=1.785740532539379,33.18241198313355",main,1.7873982,33.1823562,183.4022234512396,"https://www.google.com/maps?q=1.7873982,33.1823562",25,True,"Apili, Kaberamaido, Eastern Region, Uganda",Apili,Kaberamaido,Eastern Region,Uganda,1.7877946480718432,33.1822673008061,0.044939479864080145,"POLYGON ((33.18690705403783 1.7812165054828777, 33.18690796802642 1.790263682495454, 33.17791690701785 1.7902645823458183, 33.17791603699539 1.781217400782987, 33.18690705403783 1.7812165054828777))"
145,10636,Dokolo FM,25.0,360.8760986328125,1.7947877113800341,33.182412877408225,"https://www.google.com/maps?q=1.7947877113800341,33.182412877408225",main,1.7957559,33.181973,117.71489875045484,"https://www.google.com/maps?q=1.7957559,33.181973",25,True,"Kaberamaido, Eastern Region, Uganda",,Kaberamaido,Eastern Region,Uganda,1.7974737943464114,33.17907867954107,0.3738868603754592,"POLYGON ((33.18690796802642 1.790263682495454, 33.18690888665307 1.7993108586116826, 33.17791778145527 1.7993117630123439, 33.17791690701785 1.7902645823458183, 33.18690796802642 1.790263682495454))"
146,11992,Dokolo FM,25.0,272.2479858398437,1.7585905251615788,33.25433642849248,"https://www.google.com/maps?q=1.7585905251615788,33.25433642849248",replacement,1.7585852,33.2543129,2.683357571985626,"https://www.google.com/maps?q=1.7585852,33.2543129",25,True,"Alumai A, Kaberamaido, Eastern Region, Uganda",Alumai A,Kaberamaido,Eastern Region,Uganda,1.7608967,33.2492345,0.6201786953119907,"POLYGON ((33.25883124606693 1.7540663515229107, 33.25883249251216 1.7631134867226526, 33.24984160608112 1.763114722358116, 33.24984040293168 1.7540675808140938, 33.25883124606693 1.7540663515229107))"
147,12677,Dokolo FM,25.0,162.17630004882812,1.8038207916982676,33.29030691465238,"https://www.google.com/maps?q=1.8038207916982676,33.29030691465238",replacement,1.8038889,33.2902655,8.828988781002495,"https://www.google.com/maps?q=1.8038889,33.2902655",25,True,"Apokemado, Kaberamaido, Eastern Region, Uganda",Apokemado,Kaberamaido,Eastern Region,Uganda,1.8096820463280323,33.289672536777296,0.6439679424752208,"POLYGON ((33.294801723437864 1.7992965288342082, 33.29480317964041 1.8083436319516948, 33.285812100415605 1.8083450785092459, 33.285810688623684 1.7992979681500827, 33.294801723437864 1.7992965288342082))"
148,9267,Dokolo FM,25.0,241.1128387451172,1.7133686010596467,33.11047931076264,"https://www.google.com/maps?q=1.7133686010596467,33.11047931076264",replacement,1.7127857,33.1114643,127.14753630969422,"https://www.google.com/maps?q=1.7127857,33.1114643",25,True,"Amolatar, Kaberamaido, Eastern Region, Uganda",Amolatar,Kaberamaido,Eastern Region,Uganda,1.7148887067978105,33.109832339549165,0.29504136744880377,"POLYGON ((33.114974411227735 1.70884474348438, 33.1149749506615 1.7178919576248943, 33.1059842060682 1.7178924806024494, 33.10598370881656 1.7088452637061207, 33.114974411227735 1.70884474348438))"
149,9269,Dokolo FM,25.0,163.4569549560547,1.7314630303769505,33.110480352942034,"https://www.google.com/maps?q=1.7314630303769505,33.110480352942034",replacement,1.7296535,33.112063,266.54611354915266,"https://www.google.com/maps?q=1.7296535,33.112063",25,True,"Omor, Kaberamaido, Eastern Region, Uganda",Omor,Kaberamaido,Eastern Region,Uganda,1.7342998,33.1153111,0.6281517750623324,"POLYGON ((33.11497549294791 1.7269391709055235, 33.11497603808706 1.7359863833217455, 33.1059852084603 1.7359869118110038, 33.105984705949425 1.7269396966389179, 33.11497549294791 1.7269391709055235))"
150,9271,Dokolo FM,25.0,111.52745819091795,1.7495574562275575,33.1104814060863,"https://www.google.com/maps?q=1.7495574562275575,33.1104814060863",replacement,1.7485653,33.1112529,139.30106691765982,"https://www.google.com/maps?q=1.7485653,33.1112529",25,True,"Aguroi, Kaberamaido, Eastern Region, Uganda",Aguroi,Kaberamaido,Eastern Region,Uganda,1.7485201588927164,33.11127701004805,0.005666722769199902,"POLYGON ((33.11497658607899 1.7450335948690368, 33.11497713692378 1.754080805542875, 33.10598622137122 1.754081339543937, 33.10598571360087 1.7450341261141846, 33.11497658607899 1.7450335948690368))"
151,9954,Dokolo FM,25.0,302.84765625,1.7766965727485349,33.146447078945826,"https://www.google.com/maps?q=1.7766965727485349,33.146447078945826",main,1.7759879,33.1465691,79.52918693026538,"https://www.google.com/maps?q=1.7759879,33.1465691",25,True,"Abola, Kaberamaido, Eastern Region, Uganda",Abola,Kaberamaido,Eastern Region,Uganda,1.7764713355106985,33.149243255369285,0.3023073005955685,"POLYGON ((33.15094222589338 1.77217262715192, 33.150942960271294 1.7812198219115118, 33.14195192690802 1.7812205406967543, 33.14195123627353 1.7721733422840575, 33.15094222589338 1.77217262715192))"
152,8597,Dokolo FM,25.0,314.49658203125,1.8038425517095136,33.07451998592396,"https://www.google.com/maps?q=1.8038425517095136,33.07451998592396",replacement,1.8033751,33.0742865,57.84990486169029,"https://www.google.com/maps?q=1.8033751,33.0742865",25,True,"Alit, Dokolo, Northern Region, Uganda",Alit,Dokolo,,Uganda,1.8034066110922167,33.074317835018675,0.004929123534784338,"POLYGON ((33.07901538196971 1.7993187693088966, 33.07901577228047 1.8083659843255988, 33.07002458441409 1.8083663556539202, 33.07002423851661 1.7993191387782952, 33.07901538196971 1.7993187693088966))"
153,7743,Dokolo FM,25.0,305.8886108398437,1.7676549481212498,33.02956356094853,"https://www.google.com/maps?q=1.7676549481212498,33.02956356094853",main,1.7678478,33.0299148,44.520632302637104,"https://www.google.com/maps?q=1.7678478,33.0299148",25,True,"Atugu, Dokolo, Northern Region, Uganda",Atugu,Dokolo,,Uganda,1.7702462223847204,33.02922474792278,0.2760970140941692,"POLYGON ((33.03405898503458 1.763131273642314, 33.03405914989785 1.772178499285354, 33.02506813188918 1.772178643651826, 33.0250680105469 1.7631314172713266, 33.03405898503458 1.763131273642314))"
154,8427,Dokolo FM,25.0,176.8533935546875,1.8038428997572984,33.0655288193956,"https://www.google.com/maps?q=1.8038428997572984,33.0655288193956",main,1.8039043,33.0651743,40.02551907363861,"https://www.google.com/maps?q=1.8039043,33.0651743",25,True,"Ayoni, Dokolo, Northern Region, Uganda",Ayoni,Dokolo,,Uganda,1.8085116,33.0620027,0.6197356773053014,"POLYGON ((33.07002423851661 1.7993191387782952, 33.07002458441409 1.8083663556539202, 33.06103339480999 1.8083666821799231, 33.06103309332584 1.7993194636696612, 33.07002423851661 1.7993191387782952))"
155,9957,Dokolo FM,25.0,334.86590576171875,1.803838158486557,33.1464492328353,"https://www.google.com/maps?q=1.803838158486557,33.1464492328353",replacement,1.8032582,33.1464283,64.17140825137028,"https://www.google.com/maps?q=1.8032582,33.1464283",25,True,"Abola, Kaberamaido, Eastern Region, Uganda",Abola,Kaberamaido,Eastern Region,Uganda,1.80300704006514,33.149215115851455,0.31131557076076083,"POLYGON ((33.15094444026387 1.7993142087511707, 33.15094518587871 1.8083614008221915, 33.141954019946546 1.8083621305669544, 33.14195331874445 1.7993149348427258, 33.15094444026387 1.7993142087511707))"
156,9451,Dokolo FM,25.0,209.0496826171875,1.8400289492427566,33.119478170787104,"https://www.google.com/maps?q=1.8400289492427566,33.119478170787104",main,1.8400064,33.1195151,4.806197475497855,"https://www.google.com/maps?q=1.8400064,33.1195151",25,True,"Oyama, Kaberamaido, Eastern Region, Uganda",Oyama,Kaberamaido,Eastern Region,Uganda,1.836607,33.1211454,0.4173681656728118,"POLYGON ((33.123973533325334 1.8355050572754548, 33.12397415800799 1.8445522559855578, 33.11498280229384 1.8445528632463768, 33.1149822229167 1.8355056615558047, 33.123973533325334 1.8355050572754548))"
157,8943,Dokolo FM,25.0,436.8926086425781,1.8581249758128597,33.092505096149736,"https://www.google.com/maps?q=1.8581249758128597,33.092505096149736",main,1.8585881,33.0939514,168.86972935871378,"https://www.google.com/maps?q=1.8585881,33.0939514",25,True,"Abuli, Dokolo, Northern Region, Uganda",Abuli,Dokolo,,Uganda,1.859367273116313,33.09438596588417,0.0987970521217896,"POLYGON ((33.09700057370106 1.853601146725828, 33.097001067281695 1.862648351853637, 33.08800961239525 1.8626488266318946, 33.08800916456662 1.8536016191964566, 33.09700057370106 1.853601146725828))"
158,8605,Dokolo FM,25.0,351.380126953125,1.876220250009947,33.074522989984274,"https://www.google.com/maps?q=1.876220250009947,33.074522989984274",replacement,1.8760707,33.0745713,17.388166188401783,"https://www.google.com/maps?q=1.8760707,33.0745713",25,True,"Atwako, Dokolo, Northern Region, Uganda",Atwako,Dokolo,,Uganda,1.876159418462791,33.07459519584536,0.010163967309676444,"POLYGON ((33.079018559362225 1.8716964638487885, 33.07901896536112 1.880743671498742, 33.07002741415554 1.880744057699091, 33.07002705435508 1.8716968481900707, 33.079018559362225 1.8716964638487885))"
159,10470,Dokolo FM,25.0,294.6657409667969,1.8309773153513333,33.17342523592127,"https://www.google.com/maps?q=1.8309773153513333,33.17342523592127",replacement,1.8308602,33.1731993,28.277897796115546,"https://www.google.com/maps?q=1.8308602,33.1731993",25,True,"Alwa, Kaberamaido, Eastern Region, Uganda",Alwa,Kaberamaido,Eastern Region,Uganda,1.832241736962425,33.173105297485,0.15312163577738058,"POLYGON ((33.17792043125846 1.826453299588853, 33.17792132335685 1.8355004766249223, 33.16893003475542 1.8355013537529388, 33.168929187738854 1.8264541723906875, 33.17792043125846 1.826453299588853))"
160,11493,Dokolo FM,25.0,418.2699890136719,1.8581126925530123,33.22737619221794,"https://www.google.com/maps?q=1.8581126925530123,33.22737619221794",main,1.8580304,33.2267015,75.61667332598986,"https://www.google.com/maps?q=1.8580304,33.2267015",25,True,"Odingoi, Kaberamaido, Eastern Region, Uganda",Odingoi,Kaberamaido,Eastern Region,Uganda,1.8593939,33.2285356,0.2537198168226463,"POLYGON ((33.231871296866714 1.8535885488771346, 33.231872476716966 1.8626356924748495, 33.22288108137357 1.8626368594626819, 33.222879947273825 1.8535897101928978, 33.231871296866714 1.8535885488771346))"
161,10816,Dokolo FM,25.0,199.2543792724609,1.885258478638355,33.19141360296743,"https://www.google.com/maps?q=1.885258478638355,33.19141360296743",replacement,1.8854359,33.1913486,20.909052078031092,"https://www.google.com/maps?q=1.8854359,33.1913486",25,True,"Aoya B, Kaberamaido, Eastern Region, Uganda",Aoya B,Kaberamaido,Eastern Region,Uganda,1.8872726807629867,33.18850514790876,0.375945787691478,"POLYGON ((33.195908871327816 1.8807344106247714, 33.19590988276207 1.889781572753692, 33.186918328039155 1.8897825694796464, 33.186917363025394 1.8807354025756884, 33.195908871327816 1.8807344106247714))"
162,10648,Dokolo FM,25.0,387.6150817871094,1.9033537860829266,33.182423961809675,"https://www.google.com/maps?q=1.9033537860829266,33.182423961809675",main,1.9033644,33.1830368,68.19354775552284,"https://www.google.com/maps?q=1.9033644,33.1830368",25,True,"Akongodyek, Dokolo, Northern Region, Uganda",Akongodyek,Dokolo,,Uganda,1.9027192394136918,33.18532825545719,0.26473692860543624,"POLYGON ((33.18691929769228 1.8988297354375008, 33.18692027198488 1.9078769004447287, 33.17792861911185 1.9078778594523635, 33.17792769168622 1.8988306898943097, 33.18691929769228 1.8988297354375008))"
163,7242,Dokolo FM,25.0,173.47341918945312,1.8490801915918995,33.00259068547715,"https://www.google.com/maps?q=1.8490801915918995,33.00259068547715",main,1.8490545,33.0025224,8.111324965209237,"https://www.google.com/maps?q=1.8490545,33.0025224",25,True,"Adwila (apyennyang), Dokolo, Northern Region, Uganda",Adwila (apyennyang),Dokolo,,Uganda,1.8505953434379145,33.00655332799721,0.4797615558452929,"POLYGON ((33.007086374961105 1.8445565858229718, 33.00708641084401 1.8536038048611212, 32.998094989908985 1.8536038180932026, 32.99809499955524 1.844556598990426, 33.007086374961105 1.8445565858229718))"
164,7925,Dokolo FM,25.0,383.4311828613281,1.876221419192603,33.03855686521742,"https://www.google.com/maps?q=1.876221419192603,33.03855686521742",replacement,1.8763755,33.0387382,26.406872317645476,"https://www.google.com/maps?q=1.8763755,33.0387382",25,True,"Oyengopere, Dokolo, Northern Region, Uganda",Oyengopere,Dokolo,,Uganda,1.8780523013425388,33.04035267687386,0.25815470294692916,"POLYGON ((33.043052529798125 1.8716977229794336, 33.04305275100306 1.8807449367198281, 33.03406119418421 1.8807451365331824, 33.03406101917785 1.8716979218309393, 33.043052529798125 1.8716977229794336))"
165,8098,Dokolo FM,25.0,508.8297424316406,1.903362831822055,33.04754913664353,"https://www.google.com/maps?q=1.903362831822055,33.04754913664353",main,1.9037313,33.0476409,42.00321446411801,"https://www.google.com/maps?q=1.9037313,33.0476409",25,True,"Anyacoto, Dokolo, Northern Region, Uganda",Anyacoto,Dokolo,,Uganda,1.9039771502141078,33.047168166689765,0.05920573818034144,"POLYGON ((33.052044845435546 1.8988391125902118, 33.052045116714325 1.9078863223074685, 33.04305342102936 1.9078865722761535, 33.04305319661865 1.8988393613727086, 33.052044845435546 1.8988391125902118))"
166,10139,Dokolo FM,25.0,275.9018859863281,1.9124036235061028,33.15544986636892,"https://www.google.com/maps?q=1.9124036235061028,33.15544986636892",main,1.9126852,33.1549783,61.00855557616046,"https://www.google.com/maps?q=1.9126852,33.1549783",25,True,"Atama (western Ward), Dokolo, Northern Region, Uganda",Atama (western Ward),Dokolo,,Uganda,1.9107398,33.1530824,0.30127560218313953,"POLYGON ((33.15994530033974 1.9078796356615608, 33.15994613800117 1.916926812693329, 33.150954425457975 1.9169276337726175, 33.15095363488703 1.9078804528629045, 33.15994530033974 1.9078796356615608))"
167,9462,Dokolo FM,25.0,351.42578125,1.939548094731666,33.119484972589625,"https://www.google.com/maps?q=1.939548094731666,33.119484972589625",replacement,1.9396099,33.1194904,6.860775416857265,"https://www.google.com/maps?q=1.9396099,33.1194904",25,True,"Lira - Mbale Road, Omukuceke, Dokolo, Northern Region, Uganda",Omukuceke,Dokolo,,Uganda,1.9400803978234822,33.11971186272457,0.057565117919203226,"POLYGON ((33.12398057406959 1.9350241915630588, 33.123981232601004 1.9440713798689824, 33.11498936379744 1.9440720199168753, 33.11498875302645 1.9350248286301588, 33.12398057406959 1.9350241915630588))"
168,9295,Dokolo FM,25.0,406.185546875,1.9666902828636859,33.110494899272176,"https://www.google.com/maps?q=1.9666902828636859,33.110494899272176",replacement,1.9666744,33.1106776,20.4019841612549,"https://www.google.com/maps?q=1.9666744,33.1106776",25,True,"Aolikwec, Dokolo, Northern Region, Uganda",Aolikwec,Dokolo,,Uganda,1.9660769,33.1077129,0.3363878569172978,"POLYGON ((33.11499059390281 1.9621663995669947, 33.11499121323733 1.9712135879213555, 33.1059991969586 1.9712141880722596, 33.10599862605421 1.9621669969613407, 33.11499059390281 1.9621663995669947))"
169,11499,Dokolo FM,25.0,307.4743957519531,1.9123955542470052,33.22738323568462,"https://www.google.com/maps?q=1.9123955542470052,33.22738323568462",main,1.9123087,33.2278816,56.27257222511656,"https://www.google.com/maps?q=1.9123087,33.2278816",25,True,"Abia, Kalaki, Eastern Region, Uganda",Abia,Kalaki,Eastern Region,Uganda,1.912285984960571,33.22795104027405,0.008123819608930594,"POLYGON ((33.231878462292464 1.9078713963810927, 33.231879676673444 1.9169185343142068, 33.222888002140714 1.9169197353356249, 33.22288683484921 1.9078725917301054, 33.231878462292464 1.9078713963810927))"
170,10310,Dokolo FM,25.0,937.387939453125,1.9214499551830184,33.16444241663499,"https://www.google.com/maps?q=1.9214499551830184,33.16444241663499",main,1.9214516,33.164543,11.192113326807924,"https://www.google.com/maps?q=1.9214516,33.164543",25,True,"Dokolo, Northern Region, Uganda",,Dokolo,,Uganda,1.921448918802128,33.16456777002689,0.0027717483159942495,"POLYGON ((33.1689378465742 1.9169259441208595, 33.16893873551933 1.9259731160907911, 33.15994697963274 1.9259739887655567, 33.15994613800117 1.916926812693329, 33.1689378465742 1.9169259441208595))"
171,11332,Dokolo FM,25.0,242.8048248291016,1.9395381633967486,33.21839503758274,"https://www.google.com/maps?q=1.9395381633967486,33.21839503758274",main,1.9392205,33.2184273,35.3087219469353,"https://www.google.com/maps?q=1.9392205,33.2184273",25,True,"Acanmac, Dokolo, Northern Region, Uganda",Acanmac,Dokolo,,Uganda,1.9431573,33.2144009,0.6246338522868023,"POLYGON ((33.22289035332123 1.9350140196625112, 33.22289153721054 1.9440611603748312, 33.21389971453735 1.9440623302485678, 33.21389857840723 1.9350151840879837, 33.22289035332123 1.9350140196625112))"
172,10827,Dokolo FM,25.0,427.5801086425781,1.984777230217035,33.19142476095239,"https://www.google.com/maps?q=1.984777230217035,33.19142476095239",replacement,1.9852627,33.190854,83.14913370813034,"https://www.google.com/maps?q=1.9852627,33.190854",25,True,"Dokolo, Northern Region, Uganda",,Dokolo,,Uganda,1.9836167088549677,33.19352709975134,0.3486655480735406,"POLYGON ((33.19592026456445 1.9802531412583602, 33.19592132949348 1.9893002927308792, 33.18692924941464 1.98930134198541, 33.1869282333613 1.9802541857373215, 33.19592026456445 1.9802531412583602))"
173,8101,Dokolo FM,25.0,370.55670166015625,1.9305044584481779,33.047549885506605,"https://www.google.com/maps?q=1.9305044584481779,33.047549885506605",main,1.9291958,33.0472733,147.9413048267091,"https://www.google.com/maps?q=1.9291958,33.0472733",25,True,"Amialaki Nursery School, Lira - Mbale Road, Dokolo, Northern Region, Uganda",,Dokolo,,Uganda,1.9283831,33.0440608,0.36853689351972096,"POLYGON ((33.052045663147425 1.9259807388733565, 33.0520459383018 1.935027945712947, 33.04305410067349 1.93502819924027, 33.043053873056756 1.9259809912144552, 33.052045663147425 1.9259807388733565))"
174,7254,Dokolo FM,25.0,291.9857177734375,1.957646752520936,33.00259084759742,"https://www.google.com/maps?q=1.957646752520936,33.00259084759742",replacement,1.9573255,33.0008506,196.84296207273604,"https://www.google.com/maps?q=1.9573255,33.0008506",25,True,"Agwata Tidi, Dokolo, Northern Region, Uganda",Agwata Tidi,Dokolo,,Uganda,1.9573217371003224,33.000849232832444,0.0004430149324567274,"POLYGON ((33.00708681716455 1.9531231520684533, 33.00708685515823 1.9621703596777478, 32.99809487046586 1.962170373685405, 32.99809488067954 1.9531231660114754, 33.00708681716455 1.9531231520684533))"
175,6059,Dokolo FM,25.0,299.5712280273437,1.9124096368268393,32.9396487338429,"https://www.google.com/maps?q=1.9124096368268393,32.9396487338429",replacement,1.9117893,32.9393498,76.23181989656707,"https://www.google.com/maps?q=1.9117893,32.9393498",25,True,"Akuli, Kwania, Northern Region, Uganda",Akuli,Kwania,,Uganda,1.9176607,32.9341839,0.8670853737904349,"POLYGON ((32.94414474706515 1.9078862021270837, 32.94414445454012 1.9169334103193356, 32.935152713670504 1.916933091545363, 32.93515305328675 1.9078858848586753, 32.94414474706515 1.9078862021270837))"
176,6745,Dokolo FM,25.0,402.5015563964844,1.9666937824988424,32.975614835573936,"https://www.google.com/maps?q=1.9666937824988424,32.975614835573936",replacement,1.9660817,32.9757589,69.55328461648365,"https://www.google.com/maps?q=1.9660817,32.9757589",25,True,"Akuli, Dokolo, Northern Region, Uganda",Akuli,Dokolo,,Uganda,1.9654024833890575,32.98024824266819,0.5050744797615174,"POLYGON ((32.98011090144623 1.9621702558535896, 32.9801107943241 1.971217462002023, 32.97111876201272 1.971217329554218, 32.97111891756541 1.9621701240141312, 32.98011090144623 1.9621702558535896))"
177,14044,Dokolo FM,25.0,398.46673583984375,1.867137087255843,33.36224786630389,"https://www.google.com/maps?q=1.867137087255843,33.36224786630389",main,1.8675705,33.3621788,48.53696615153303,"https://www.google.com/maps?q=1.8675705,33.3621788",25,True,"Ogolai, Kalaki, Eastern Region, Uganda",Ogolai,Kalaki,Eastern Region,Uganda,1.8668787,33.3585986,0.40561446152777475,"POLYGON ((33.36674259133562 1.862612650187439, 33.36674446652464 1.8716596808557213, 33.35775313496193 1.8716615490572082, 33.35775130574377 1.862614509352486, 33.36674259133562 1.862612650187439))"
178,12508,Dokolo FM,25.0,308.79425048828125,1.8128693257011592,33.281317247169845,"https://www.google.com/maps?q=1.8128693257011592,33.281317247169845",main,1.8126898,33.2813401,20.013306724677513,"https://www.google.com/maps?q=1.8126898,33.2813401",25,True,"Apokemado, Kaberamaido, Eastern Region, Uganda",Apokemado,Kaberamaido,Eastern Region,Uganda,1.8087939646599624,33.28178296139265,0.4335924434047585,"POLYGON ((33.285812100415605 1.8083450785092459, 33.285813519300106 1.8173921879623987, 33.276822388348826 1.8173935967377217, 33.27682101409823 1.8083464802670997, 33.285812100415605 1.8083450785092459))"
179,12171,Dokolo FM,25.0,212.78384399414065,1.8400134219382018,33.26333896759779,"https://www.google.com/maps?q=1.8400134219382018,33.26333896759779",main,1.8402784,33.2618581,167.34991313257183,"https://www.google.com/maps?q=1.8402784,33.2618581",25,True,"Awimon, Kaberamaido, Eastern Region, Uganda",Awimon,Kaberamaido,Eastern Region,Uganda,1.8385961,33.2584476,0.42260421149480065,"POLYGON ((33.26783392970066 1.835489204280785, 33.26783527925722 1.8445363247998068, 33.258843999548354 1.8445376632337889, 33.25884269529541 1.8354905361456646, 33.26783392970066 1.835489204280785))"
180,13364,Dokolo FM,25.0,256.392578125,1.867144171916019,33.326282562526785,"https://www.google.com/maps?q=1.867144171916019,33.326282562526785",replacement,1.8674751,33.3275323,143.78112957320786,"https://www.google.com/maps?q=1.8674751,33.3275323",25,True,"Omarai, Kalaki, Eastern Region, Uganda",Omarai,Kalaki,Eastern Region,Uganda,1.8681173,33.3292579,0.2047031780253676,"POLYGON ((33.330777396588225 1.8626198099842013, 33.330779087892466 1.871666875452553, 33.321787722152685 1.871668558180567, 33.32178607682016 1.8626214845729059, 33.330777396588225 1.8626198099842013))"
181,12514,Dokolo FM,25.0,455.19915771484375,1.8671519869651958,33.28132575227678,"https://www.google.com/maps?q=1.8671519869651958,33.28132575227678",main,1.867693,33.2813165,59.8316187427556,"https://www.google.com/maps?q=1.867693,33.2813165",25,True,"Ocanga, Kalaki, Eastern Region, Uganda",Ocanga,Kalaki,Eastern Region,Uganda,1.8684508553812937,33.28117540457022,0.08525792246608019,"POLYGON ((33.28582072011732 1.8626277214795885, 33.28582218156095 1.8716748254016267, 33.276830778120605 1.8716762762831773, 33.27682936264966 1.8626291653432643, 33.28582072011732 1.8626277214795885))"
182,13707,Dokolo FM,25.0,195.9524841308593,1.894281876300567,33.34427055075549,"https://www.google.com/maps?q=1.894281876300567,33.34427055075549",replacement,1.8939621,33.3450477,93.41556876484869,"https://www.google.com/maps?q=1.8939621,33.3450477",25,True,"Ocukai, Kalaki, Eastern Region, Uganda",Ocukai,Kalaki,Eastern Region,Uganda,1.8936139,33.3455095,0.06420499638413926,"POLYGON ((33.34876538698214 1.8897574651051798, 33.34876719619739 1.8988045107937646, 33.33977570784705 1.8988063120230894, 33.33977394527255 1.8897592577463744, 33.34876538698214 1.8897574651051798))"
183,14222,Dokolo FM,25.0,193.8119201660156,1.9395113784139486,33.371254650626966,"https://www.google.com/maps?q=1.9395113784139486,33.371254650626966",main,1.9394632,33.371392,16.18296947013819,"https://www.google.com/maps?q=1.9394632,33.371392",25,True,"Akamtak, Kalaki, Eastern Region, Uganda",Akamtak,Kalaki,Eastern Region,Uganda,1.9413426,33.3697687,0.2753260674240334,"POLYGON ((33.37574949822364 1.9349868896076263, 33.37575149399214 1.9440339033803369, 33.36675979573298 1.9440358920386915, 33.366757847720386 1.9349888690045232, 33.37574949822364 1.9349868896076263))"
184,13369,Dokolo FM,25.0,260.8031311035156,1.9123795078175065,33.32629100537622,"https://www.google.com/maps?q=1.9123795078175065,33.32629100537622",main,1.9123181,33.3259209,41.7332533295328,"https://www.google.com/maps?q=1.9123181,33.3259209",25,True,"Opokoro, Kalaki, Eastern Region, Uganda",Opokoro,Kalaki,Eastern Region,Uganda,1.9145348163171554,33.32809702437029,0.34452695539711714,"POLYGON ((33.33078593520709 1.9078551278999727, 33.330787667561204 1.916902188632694, 33.32179606861548 1.91690391205846, 33.32179438334887 1.907856843186027, 33.33078593520709 1.9078551278999727))"
185,12009,Dokolo FM,25.0,341.188720703125,1.9123917464998168,33.25435816218989,"https://www.google.com/maps?q=1.9123917464998168,33.25435816218989",replacement,1.9129567,33.2545338,65.45500755544316,"https://www.google.com/maps?q=1.9129567,33.2545338",25,True,"Kamuriye, Kalaki, Eastern Region, Uganda",Kamuriye,Kalaki,Eastern Region,Uganda,1.9129572795894927,33.25453396779087,6.675192864224345e-05,"POLYGON ((33.25885330919654 1.9078675267275313, 33.258854664845046 1.916914646297605, 33.249863008248795 1.9169159897950403, 33.2498616996893 1.907868863879649, 33.25885330919654 1.9078675267275313))"
186,13373,Dokolo FM,25.0,215.45089721679688,1.948567759314265,33.326297905435105,"https://www.google.com/maps?q=1.948567759314265,33.326297905435105",main,1.9491422,33.3261319,66.14968584768172,"https://www.google.com/maps?q=1.9491422,33.3261319",25,True,"Ongole, Kalaki, Eastern Region, Uganda",Ongole,Kalaki,Eastern Region,Uganda,1.9546722,33.3292579,0.7034665063684682,"POLYGON ((33.33079291388808 1.9440433650484943, 33.33079467908593 1.9530904219112168, 33.32180288955834 1.9530921778966543, 33.32180117234074 1.94404511289389, 33.33079291388808 1.9440433650484943))"
187,12524,Dokolo FM,25.0,472.0054931640625,1.9576230137560493,33.281340486046545,"https://www.google.com/maps?q=1.9576230137560493,33.281340486046545",replacement,1.957719,33.2805223,91.64393879112953,"https://www.google.com/maps?q=1.957719,33.2805223",25,True,"Acida, Kalaki, Eastern Region, Uganda",Acida,Kalaki,Eastern Region,Uganda,1.9611058,33.2789611,0.4128157573557528,"POLYGON ((33.28583565379719 1.9530987179606611, 33.28583718618722 1.962145812302106, 33.27684531074579 1.9621473333662418, 33.27684382656021 1.9531002320062192, 33.28583565379719 1.9530987179606611))"
188,12188,Dokolo FM,25.0,443.4795837402344,1.9938143897183855,33.26336246957573,"https://www.google.com/maps?q=1.9938143897183855,33.26336246957573",replacement,1.9938914,33.2634681,14.51256052956327,"https://www.google.com/maps?q=1.9938914,33.2634681",25,True,"Awiealem, Dokolo, Northern Region, Uganda",Awiealem,Dokolo,,Uganda,1.993514694050434,33.264235923788426,0.09503723554902804,"POLYGON ((33.267857776270944 1.9892901243654322, 33.26785923884995 1.998337228561348, 33.25886715483541 1.9983386786800466, 33.25886574135409 1.9892915679139072, 33.267857776270944 1.9892901243654322))"
189,11338,Dokolo FM,25.0,329.03814697265625,1.9938210063741935,33.218402095263805,"https://www.google.com/maps?q=1.9938210063741935,33.218402095263805",replacement,1.9937996,33.2180844,35.42357888100112,"https://www.google.com/maps?q=1.9937996,33.2180844",25,True,"Anaagogwec, Dokolo, Northern Region, Uganda",Anaagogwec,Dokolo,,Uganda,1.9885928014359089,33.21554541150407,0.6413043055591915,"POLYGON ((33.22289753965343 1.9892968492442773, 33.222898756742325 1.9983439840480757, 33.213906642826494 1.998345186612574, 33.2139054748361 1.9892980463601742, 33.22289753965343 1.9892968492442773))"
190,10491,Dokolo FM,25.0,374.843994140625,2.0209678694439797,33.17344444593084,"https://www.google.com/maps?q=2.0209678694439797,33.17344444593084",main,2.0208443,33.1732883,22.10118457636418,"https://www.google.com/maps?q=2.0208443,33.1732883",25,True,"Adagnyeko (acanpii), Dokolo, Northern Region, Uganda",Adagnyeko (acanpii),Dokolo,,Uganda,2.0214785,33.1711756,0.24527801403266902,"POLYGON ((33.17794009273304 2.0164438183576623, 33.177941077581174 2.025490975146667, 33.168948790708065 2.0254919431344156, 33.16894785562883 2.016444782018313, 33.17794009273304 2.0164438183576623))"
191,11174,Dokolo FM,25.0,170.67465209960938,2.0481050205666484,33.20941695750884,"https://www.google.com/maps?q=2.0481050205666484,33.20941695750884",main,2.0480705,33.2091053,34.8810299934574,"https://www.google.com/maps?q=2.0480705,33.2091053",25,True,"Acoolwor, Dokolo, Northern Region, Uganda",Acoolwor,Dokolo,,Uganda,2.0513636704390703,33.21165592044499,0.46164623172367797,"POLYGON ((33.21391256243954 2.0435808727762446, 33.21391376229539 2.0526280069576583, 33.20492134378894 2.052629191357652, 33.20492019437125 2.0435820519516312, 33.21391256243954 2.0435808727762446))"
192,10324,Dokolo FM,25.0,288.55938720703125,2.0481102951565804,33.1644549308211,"https://www.google.com/maps?q=2.0481102951565804,33.1644549308211",replacement,2.0472844,33.1632672,160.6218579417296,"https://www.google.com/maps?q=2.0472844,33.1632672",25,True,"Agweng, Dokolo, Northern Region, Uganda",Agweng,Dokolo,,Uganda,2.04727588861794,33.163258345206714,0.0013624102338404616,"POLYGON ((33.16895067345074 2.043586262320583, 33.1689516211144 2.0526334203816066, 33.15995917939997 2.0526343504929385, 33.15995828217512 2.043587188329022, 33.16895067345074 2.043586262320583))"
193,10325,Dokolo FM,25.0,373.8918762207031,2.0571574547559526,33.16445585531299,"https://www.google.com/maps?q=2.0571574547559526,33.16445585531299",main,2.0587864,33.1651154,194.49285539929195,"https://www.google.com/maps?q=2.0587864,33.1651154",25,True,"Okwongo-iringo, Dokolo, Northern Region, Uganda",Okwongo-iringo,Dokolo,,Uganda,2.0627645,33.1659646,0.44991157051145464,"POLYGON ((33.1689516211144 2.0526334203816066, 33.16895257297311 2.06168057741523, 33.15996008059658 2.0616815116294984, 33.15995917939997 2.0526343504929385, 33.1689516211144 2.0526334203816066))"
194,12869,Dokolo FM,25.0,464.599853515625,2.002855286129965,33.29933229081704,"https://www.google.com/maps?q=2.002855286129965,33.29933229081704",replacement,2.0026119,33.3000228,81.39824672810364,"https://www.google.com/maps?q=2.0026119,33.3000228",25,True,"Ogwolo Primary School, Amoru, Kalaki, Eastern Region, Uganda",Amoru,Kalaki,Eastern Region,Uganda,2.0008094,33.2978387,0.314272921690846,"POLYGON ((33.303827506176134 1.9983309329851464, 33.30382917268692 2.0073780076557486, 33.29483706729147 2.0073796632822143, 33.29483545010085 1.9983325811440253, 33.303827506176134 1.9983309329851464))"
195,12190,Dokolo FM,25.0,315.013427734375,2.0119086026778663,33.26336535872473,"https://www.google.com/maps?q=2.0119086026778663,33.26336535872473",replacement,2.0122349,33.2633651,36.08054819714353,"https://www.google.com/maps?q=2.0122349,33.2633651",25,True,"Awelomer, Dokolo, Northern Region, Uganda",Awelomer,Dokolo,,Uganda,2.0121757480705487,33.263377662294715,0.006688406675498778,"POLYGON ((33.26786070807891 2.00738433175636, 33.26786218395803 2.016431433945945, 33.25887000107841 2.0164328972053, 33.25886857474346 2.0073857884453523, 33.26786070807891 2.00738433175636))"
196,13042,Dokolo FM,25.0,434.73089599609375,2.029994817371267,33.308329475757574,"https://www.google.com/maps?q=2.029994817371267,33.308329475757574",main,2.0303043,33.3076458,83.4030173355873,"https://www.google.com/maps?q=2.0303043,33.3076458",25,True,"Angoltok, Kalaki, Eastern Region, Uganda",Angoltok,Kalaki,Eastern Region,Uganda,2.0307352422592166,33.30720568328362,0.06832322986162481,"POLYGON ((33.31282472549995 2.0254704332308475, 33.312826464630334 2.0345174971785407, 33.30383421747867 2.0345192256150897, 33.30383252833798 2.025472153975245, 33.31282472549995 2.0254704332308475))"
197,13046,Dokolo FM,25.0,320.7179870605469,2.0661830803624537,33.308336393567835,"https://www.google.com/maps?q=2.0661830803624537,33.308336393567835",replacement,2.0662373,33.3086654,37.088954785527406,"https://www.google.com/maps?q=2.0662373,33.3086654",25,True,"Abwa, Alebtong, Northern Region, Uganda",Abwa,Alebtong,,Uganda,2.0662325279393063,33.30865573491684,0.0011977195327708924,"POLYGON ((33.31283172862417 2.0616586828872157, 33.31283349882374 2.0707057427302216, 33.30384104948076 2.0707075019362, 33.303839330163925 2.0616604344007126, 33.31283172862417 2.0616586828872157))"
198,9976,Dokolo FM,25.0,137.22164916992188,1.9757346743980795,33.146463633789715,"https://www.google.com/maps?q=1.9757346743980795,33.146463633789715",replacement,1.9759009,33.14529880000001,130.88912163027516,"https://www.google.com/maps?q=1.9759009,33.14529880000001",25,True,"Acanyibi, Dokolo, Northern Region, Uganda",Acanyibi,Dokolo,,Uganda,1.9764498,33.1444368,0.11349371324926838,"POLYGON ((33.150959247573404 1.9712106989230986, 33.150960064375184 1.9802578730213478, 33.14196801220143 1.9802586721838307, 33.14196724405266 1.9712114944316863, 33.150959247573404 1.9712106989230986))"
199,9300,Dokolo FM,25.0,314.7155456542969,2.011926219131622,33.11049790918822,"https://www.google.com/maps?q=2.011926219131622,33.11049790918822",replacement,2.0116587,33.1108115,45.74026590811921,"https://www.google.com/maps?q=2.0116587,33.1108115",25,True,"Acangweno (abucero), Dokolo, Northern Region, Uganda",Acangweno (abucero),Dokolo,,Uganda,2.0091139623634575,33.10940587106757,0.32191960285702126,"POLYGON ((33.11499371912278 2.0074023314286684, 33.11499435273136 2.016449514805362, 33.10600209095347 2.0164501287394874, 33.1060015068912 2.0074029426060913, 33.11499371912278 2.0074023314286684))"
200,9131,Dokolo FM,25.0,424.47271728515625,2.020973993652498,33.10150623142287,"https://www.google.com/maps?q=2.020973993652498,33.10150623142287",replacement,2.0209846,33.1016775,19.08981130881059,"https://www.google.com/maps?q=2.0209846,33.1016775",25,True,"Okerkok, Dokolo, Northern Region, Uganda",Okerkok,Dokolo,,Uganda,2.0184413884453605,33.102089457735474,0.2849273711206172,"POLYGON ((33.10600209095347 2.0164501287394874, 33.106002677647524 2.0254973138638186, 33.097010363468186 2.0254978803690507, 33.097009826543776 2.016450692712328, 33.10600209095347 2.0164501287394874))"
201,10154,Dokolo FM,25.0,169.28854370117188,2.048111197837441,33.155462512340435,"https://www.google.com/maps?q=2.048111197837441,33.155462512340435",replacement,2.0451391,33.1547981,336.85140615758274,"https://www.google.com/maps?q=2.0451391,33.1547981",25,True,"Ayito (adwoki), Dokolo, Northern Region, Uganda",Ayito (adwoki),Dokolo,,Uganda,2.045211878079012,33.154813505717016,0.008227963971230778,"POLYGON ((33.15995828217512 2.043587188329022, 33.15995917939997 2.0526343504929385, 33.15096673371379 2.0526352297461696, 33.15096588692786 2.0435880637037056, 33.15995828217512 2.043587188329022))"
202,7433,Dokolo FM,25.0,164.51007080078125,2.03907154126582,33.011583378673386,"https://www.google.com/maps?q=2.03907154126582,33.011583378673386",main,2.0422691,33.0047219,841.245427425502,"https://www.google.com/maps?q=2.0422691,33.0047219",25,True,"Akaidebe B, Amach, Lira District, Northern Region, Uganda",Akaidebe B,Lira District,,Uganda,2.0421902101331053,33.00370265959638,0.11372479337173154,"POLYGON ((33.01607954365325 2.0345479198930683, 33.01607963344702 2.043595118214618, 33.00708720501867 2.043595183438761, 33.00708716544147 2.034547984828224, 33.01607954365325 2.0345479198930683))"
203,7095,Dokolo FM,25.0,295.5750427246094,2.0571659655125107,32.99359849999189,"https://www.google.com/maps?q=2.0571659655125107,32.99359849999189",main,2.0626213,32.9911434,662.1787491961966,"https://www.google.com/maps?q=2.0626213,32.9911434",25,True,"Alworo A, Amach, Lira District, Northern Region, Uganda",Alworo A,Lira District,,Uganda,2.0684481,32.9892398,0.6782129443200715,"POLYGON ((32.998094765727664 2.0526423956808855, 32.99809475499368 2.0616895923066316, 32.98910222533367 2.0616895559418733, 32.98910228673079 2.052642359475836, 32.998094765727664 2.0526423956808855))"
204,7950,Dokolo FM,25.0,332.7182312011719,2.102401469567511,33.03856211712417,"https://www.google.com/maps?q=2.102401469567511,33.03856211712417",main,2.102217,33.0381958,45.57098422821433,"https://www.google.com/maps?q=2.102217,33.0381958",25,True,"Odwonga, Amach, Lira District, Northern Region, Uganda",Odwonga,Lira District,,Uganda,2.0932983,33.045277,1.2621910131849652,"POLYGON ((33.043058380555564 2.097877773754588, 33.043058628483145 2.1069249626108206, 33.03406584415463 2.1069251864735934, 33.03406564800664 2.097877996655261, 33.043058380555564 2.097877773754588))"
205,9481,Dokolo FM,25.0,488.3505554199219,2.1114445204903416,33.11949756652901,"https://www.google.com/maps?q=2.1114445204903416,33.11949756652901",replacement,2.1116135,33.1185402,108.12833838806647,"https://www.google.com/maps?q=2.1116135,33.1185402",25,True,"Acanpii A, Agali, Lira District, Northern Region, Uganda",Acanpii A,Lira District,,Uganda,2.112704709518338,33.118102047038526,0.13013434666667137,"POLYGON ((33.12399361252331 2.1069205986189536, 33.12399432954419 2.115967767665654, 33.115001510876404 2.1159684643545233, 33.11500084585792 2.1069212923264304, 33.12399361252331 2.1069205986189536))"
206,9312,Dokolo FM,25.0,304.4476928710937,2.1204923624016674,33.11050541282997,"https://www.google.com/maps?q=2.1204923624016674,33.11050541282997",replacement,2.1191798,33.1090783,215.10199819051857,"https://www.google.com/maps?q=2.1191798,33.1090783",25,True,"Oriocudi, Agali, Lira District, Northern Region, Uganda",Oriocudi,Lira District,,Uganda,2.1243644397356505,33.11049015254601,0.5944204506131061,"POLYGON ((33.115001510876404 2.1159684643545233, 33.11500217875082 2.1250156353238117, 33.1060093050013 2.1250162823406664, 33.10600868935269 2.1159691086143186, 33.115001510876404 2.1159684643545233))"
207,11348,Dokolo FM,25.0,424.8341064453125,2.0842923309893684,33.21841429184913,"https://www.google.com/maps?q=2.0842923309893684,33.21841429184913",replacement,2.0842386,33.2177474,74.42679693816258,"https://www.google.com/maps?q=2.0842386,33.2177474",25,True,"Barayom (apenyo), Dokolo, Northern Region, Uganda",Barayom (apenyo),Dokolo,,Uganda,2.0822343,33.2183112,0.23033106515721333,"POLYGON ((33.222909959580846 2.0797681517133624, 33.22291123201444 2.088815276307835, 33.21391861483453 2.088816533361526, 33.21391739373208 2.07976940331787, 33.222909959580846 2.0797681517133624))"
208,11690,Dokolo FM,25.0,219.4388427734375,2.102383948909643,33.23640217430783,"https://www.google.com/maps?q=2.102383948909643,33.23640217430783",main,2.1014233,33.2366225,109.01555089946865,"https://www.google.com/maps?q=2.1014233,33.2366225",25,True,"Aweikoko, Alebtong, Northern Region, Uganda",Aweikoko,Alebtong,,Uganda,2.0983261,33.2318774,0.6292342996560277,"POLYGON ((33.24089783062235 2.0978597189140844, 33.2408992176818 2.1069068298407614, 33.231906508464256 2.1069082021993553, 33.231905173182255 2.0978610853746664, 33.24089783062235 2.0978597189140844))"
209,12878,Dokolo FM,25.0,479.4281921386719,2.0842789505833883,33.2993473685228,"https://www.google.com/maps?q=2.0842789505833883,33.2993473685228",replacement,2.0847828,33.2988086,81.83106153955612,"https://www.google.com/maps?q=2.0847828,33.2988086",25,True,"Anapakori, Alebtong, Northern Region, Uganda",Anapakori,Alebtong,,Uganda,2.0866618784770856,33.29840774523929,0.21251194332300768,"POLYGON ((33.303842776342165 2.0797545684342866, 33.303844510748334 2.0888016338904487, 33.29485195142505 2.0888033567287687, 33.294850268348384 2.0797562838043016, 33.303842776342165 2.0797545684342866))"
